adname,tel,address,business_area,name,lon,lat
万柏林区,0351-6342160,西峪街神堂沟,null,龙泉派出所,112.486947,37.801116
万柏林区,0351-6066665,大众街12号,千峰,和平南路派出所,112.512018,37.848689
万柏林区,"资料暂未齐全,请拨打110,告诉警察你所在区域的地址及标志地物",NULL,兴华街,兴华小区派出所,112.522321,37.883714
万柏林区,0351-6361035,玉河街21号,和平北路,和平北路派出所,112.506422,37.869465
万柏林区,"资料暂未齐全,请拨打110,告诉警察你所在区域的地址及标志地物",和平北路5号,兴华,长安派出所,112.506166,37.893547
万柏林区,"资料暂未齐全,请拨打110,告诉警察你所在区域的地址及标志地物",晋祠路附近,NULL,长风派出所市场警务室,112.5157,37.810308
万柏林区,"资料暂未齐全,请拨打110,告诉警察你所在区域的地址及标志地物",漪兴路与永乐南街交叉口西南240米,漪汾,校园警务室,112.523859,37.875992
万柏林区,"资料暂未齐全,请拨打110,告诉警察你所在区域的地址及标志地物",后北屯街太原市万柏林区后北屯小学,千峰,玉河派出所治安警区,112.519559,37.868527
万柏林区,"资料暂未齐全,请拨打110,告诉警察你所在区域的地址及标志地物",公园路与千峰西一巷交叉口西北120米,下元,太理中幼警务室,112.513619,37.862095
万柏林区,"资料暂未齐全,请拨打110,告诉警察你所在区域的地址及标志地物",西三巷嘉苑小区,下元,西巷社区警务室,112.507854,37.864244
万柏林区,"资料暂未齐全,请拨打110,告诉警察你所在区域的地址及标志地物",玉河街与迎宾路交叉口东40米,NULL,太重技校警务室,112.50479,37.869226
万柏林区,"资料暂未齐全,请拨打110,告诉警察你所在区域的地址及标志地物",后王街与众纺路交叉口西200米,下元,校园警务室,112.512803,37.851274
万柏林区,"资料暂未齐全,请拨打110,告诉警察你所在区域的地址及标志地物",千峰北路与千峰西一巷交叉口北60米,千峰,校园警务室,112.518487,37.862201
万柏林区,"资料暂未齐全,请拨打110,告诉警察你所在区域的地址及标志地物",西矿街136号,迎泽西大街,红旗社区警务室,112.493296,37.861373
万柏林区,0351-6211110,西矿街328号,南寒羊汤馆(南寒圣都店),北寒派出所,112.456596,37.852621
万柏林区,"资料暂未齐全,请拨打110,告诉警察你所在区域的地址及标志地物",和平北路北巷与晋机路交叉口东北140米,和平北路,新友谊社区警务室,112.508093,37.895126
万柏林区,"资料暂未齐全,请拨打110,告诉警察你所在区域的地址及标志地物",九院沙河北沿岸与滨河西路辅路交叉口西100米,NULL,汇锦花园警务室,112.538663,37.827913
万柏林区,0351-6180110,千峰南路九院沙河南岸口,千峰,长风派出所,112.519573,37.829838
万柏林区,"资料暂未齐全,请拨打110,告诉警察你所在区域的地址及标志地物",西矿街山西综改示范区滨西工业园,西矿街,滨西工业园警务室,112.488129,37.862182
万柏林区,"资料暂未齐全,请拨打110,告诉警察你所在区域的地址及标志地物",西中环路与西中环路出口交叉口东320米,兴华,派出所校园警务室,112.493026,37.894891
万柏林区,"资料暂未齐全,请拨打110,告诉警察你所在区域的地址及标志地物",南屯苑南区北门旁,NULL,丽华派出所南屯苑警务室,112.524746,37.80204
万柏林区,"资料暂未齐全,请拨打110,告诉警察你所在区域的地址及标志地物",红沟小区,NULL,红沟小区警务室,112.466623,37.845151
万柏林区,"资料暂未齐全,请拨打110,告诉警察你所在区域的地址及标志地物",漪汾街10号麦特摩尔大厦F1层,漪汾,兴华派出所巡逻点,112.52832,37.873307
万柏林区,"资料暂未齐全,请拨打110,告诉警察你所在区域的地址及标志地物",西矿街415号附近,西矿街,官地矿铁北巡防队,112.44527,37.85214
万柏林区,0351-6138110,南内环西街291号,NULL,建矿派出所,112.471557,37.851519
万柏林区,"资料暂未齐全,请拨打110,告诉警察你所在区域的地址及标志地物",玉河街南巷与玉门河北沿岸辅路交叉口东北40米,NULL,玉河南北社区警务室,112.496556,37.865449
万柏林区,0351-2777110,NULL,西矿街,太原市公安局万柏林分局,112.491368,37.858983
万柏林区,"资料暂未齐全,请拨打110,告诉警察你所在区域的地址及标志地物",迎泽西大街124附近,迎泽西大街,小井峪派出所闫家沟警务室,112.497994,37.85852
万柏林区,0351-6965671,西铭路71号,NULL,西铭派出所,112.442943,37.861169
万柏林区,"资料暂未齐全,请拨打110,告诉警察你所在区域的地址及标志地物",大王路34号,千峰,桥西小学警务室,112.527342,37.848385
万柏林区,"资料暂未齐全,请拨打110,告诉警察你所在区域的地址及标志地物",和平北路38号,和平北路,千峰派出所,112.511154,37.863441
万柏林区,"资料暂未齐全,请拨打110,告诉警察你所在区域的地址及标志地物",智诚・御河骏景B区东南门旁,下元,御河骏景警务室,112.508108,37.855753
万柏林区,"资料暂未齐全,请拨打110,告诉警察你所在区域的地址及标志地物",开城街3号院附近,NULL,西铭派出所狮头社区警务室,112.442459,37.866877
万柏林区,"资料暂未齐全,请拨打110,告诉警察你所在区域的地址及标志地物",新星国际幼儿园西南门旁,千峰,长风派出所校园警务室,112.512107,37.829528
万柏林区,"资料暂未齐全,请拨打110,告诉警察你所在区域的地址及标志地物",新庄北街与新庄东路交叉口北100米,千峰,西岸社区警务室,112.51977,37.827236
万柏林区,"资料暂未齐全,请拨打110,告诉警察你所在区域的地址及标志地物",上庄街与西线南街北一条交叉口东60米,NULL,柏林区实验中学警务室,112.47895,37.880778
万柏林区,"资料暂未齐全,请拨打110,告诉警察你所在区域的地址及标志地物",小井峪社区居委会,NULL,小井峪派出所,112.497469,37.850647
万柏林区,"资料暂未齐全,请拨打110,告诉警察你所在区域的地址及标志地物",前北屯路17号,千峰,后北屯玉河小区-社区警务室,112.526333,37.864041
万柏林区,"资料暂未齐全,请拨打110,告诉警察你所在区域的地址及标志地物",西中环路辅路与西中环路出口交叉口北240米,NULL,修造厂治安室,112.489346,37.895583
万柏林区,"资料暂未齐全,请拨打110,告诉警察你所在区域的地址及标志地物",和平南路万柏林区实验小学,义井,前一万山社区警务室,112.506807,37.819557
万柏林区,"资料暂未齐全,请拨打110,告诉警察你所在区域的地址及标志地物",丽华北街10号,长风,丽华苑小区警务室,112.536698,37.822496
万柏林区,"资料暂未齐全,请拨打110,告诉警察你所在区域的地址及标志地物",玉门河北沿岸与前北屯路交叉口西北60米,漪汾街,兴华街道玉门河办公区警务室,112.525957,37.865495
万柏林区,"资料暂未齐全,请拨打110,告诉警察你所在区域的地址及标志地物",滨河西路辅路与滨体北街交叉口西北100米,漪汾,兴华小区派出所摩天石警务室,112.533492,37.877049
万柏林区,"资料暂未齐全,请拨打110,告诉警察你所在区域的地址及标志地物",西铭路71号,NULL,西铭派出所户证大厅,112.442885,37.86119
万柏林区,"资料暂未齐全,请拨打110,告诉警察你所在区域的地址及标志地物",迎泽西大街与前北屯路交叉口西南160米,千峰,千峰派出所迎泽南社区警务室,112.526046,37.856801
万柏林区,"资料暂未齐全,请拨打110,告诉警察你所在区域的地址及标志地物",金域阅山北2门旁,千峰,千峰派出所东大幼儿园警务室,112.512252,37.866939
万柏林区,"资料暂未齐全,请拨打110,告诉警察你所在区域的地址及标志地物",北中环街新友谊小区,和平北路,万柏林派出所安广社区警务室,112.505644,37.897518
万柏林区,"资料暂未齐全,请拨打110,告诉警察你所在区域的地址及标志地物",小井峪街40号,NULL,小井峪派出所56中警务室,112.50417,37.851195
万柏林区,"资料暂未齐全,请拨打110,告诉警察你所在区域的地址及标志地物",红沟靶场路西山煤电433小区,南寒羊汤馆(南寒圣都店),建矿派出所西矿南社区警务室,112.460313,37.854473
万柏林区,"资料暂未齐全,请拨打110,告诉警察你所在区域的地址及标志地物",河涝湾街万柏林区第十中学校,NULL,建矿派出所万柏林十中警务室,112.442582,37.843796
万柏林区,"资料暂未齐全,请拨打110,告诉警察你所在区域的地址及标志地物",神堂沟南路与神泉街交叉口西100米神堂沟社区居委会附近,NULL,龙泉派出所神堂沟社区警务室,112.485867,37.799585
万柏林区,"资料暂未齐全,请拨打110,告诉警察你所在区域的地址及标志地物",白家庄路,白家庄,白家庄派出所五三小区警务室,112.429061,37.835586
万柏林区,"资料暂未齐全,请拨打110,告诉警察你所在区域的地址及标志地物",初民路太原理工大学迎西校区,千峰,太原市直属分局理工社区警务室,112.5196,37.859379
万柏林区,"资料暂未齐全,请拨打110,告诉警察你所在区域的地址及标志地物",太原市为民服务中心,NULL,山西公安出入境发证服务大厅,112.522678,37.80539
万柏林区,"资料暂未齐全,请拨打110,告诉警察你所在区域的地址及标志地物",新康乐巷与康玉巷交叉口东160米,NULL,和平北路派出所康乐社区警务室,112.502729,37.867129
万柏林区,0351-6273311,永乐南街银座,漪汾,永乐苑社区居委会办公室警务室,112.52321,37.878269
万柏林区,"资料暂未齐全,请拨打110,告诉警察你所在区域的地址及标志地物",虎峪河北沿岸与白家庄路交叉口西480米,杜儿坪,杜儿坪派出所白煜一区警务室,112.434878,37.842816
万柏林区,0351-6971110,王封乡,NULL,太原市王封乡派出所,112.35932,37.894283
万柏林区,"资料暂未齐全,请拨打110,告诉警察你所在区域的地址及标志地物",新晋祠路169号附近,NULL,长风派出所南屯苑警务室,112.524586,37.802024
万柏林区,"资料暂未齐全,请拨打110,告诉警察你所在区域的地址及标志地物",东N巷与东社东路交叉口西140米,东社,东社派出所东升苑警务室,112.49317,37.884256
万柏林区,"资料暂未齐全,请拨打110,告诉警察你所在区域的地址及标志地物",九院住宅小区北区东院南1门旁,NULL,西铭派出所九院住宅小区警务室,112.44307,37.856578
万柏林区,"资料暂未齐全,请拨打110,告诉警察你所在区域的地址及标志地物",西客站东路与南内环西街交叉口西北60米,NULL,西华苑派出所办户办证大厅,112.471738,37.851411
万柏林区,"资料暂未齐全,请拨打110,告诉警察你所在区域的地址及标志地物",纺织街晋煤悦城,千峰,和平南路派出所南内环西街社区警务室,112.521799,37.844475
万柏林区,"资料暂未齐全,请拨打110,告诉警察你所在区域的地址及标志地物",彭西一巷与千峰北路交叉口东60米,漪汾街,兴华小区派出所竹杏社区警务室,112.518562,37.884813
万柏林区,"资料暂未齐全,请拨打110,告诉警察你所在区域的地址及标志地物",彭村东街与彭西三巷交叉口西北40米,漪汾街,万柏林派出所晨光幼儿园警务室,112.514446,37.880148
万柏林区,"资料暂未齐全,请拨打110,告诉警察你所在区域的地址及标志地物",万柏林区流小学,西矿街,太原市万柏林区流小学校校园警务室,112.477623,37.860772
万柏林区,"资料暂未齐全,请拨打110,告诉警察你所在区域的地址及标志地物",建筑西巷与建筑北巷交叉口北20米,西矿街,建矿派出所建筑街社区警务室,112.447963,37.853487
万柏林区,"资料暂未齐全,请拨打110,告诉警察你所在区域的地址及标志地物",九院东路8号附近,NULL,建矿派出所康乐苑社区警务室,112.450571,37.854699
万柏林区,"资料暂未齐全,请拨打110,告诉警察你所在区域的地址及标志地物",千峰南路与润景巷交叉口南140米,千峰,长风派出所小王庄村社区警务室,112.518964,37.83658
万柏林区,"资料暂未齐全,请拨打110,告诉警察你所在区域的地址及标志地物",河涝湾街万柏林区第十中学校,NULL,太原市万柏林区第十中学校校园警务室,112.442573,37.84379
万柏林区,"资料暂未齐全,请拨打110,告诉警察你所在区域的地址及标志地物",和平北路99-4附近,和平北路,公安万柏林派出所彭村社区警务室,112.510381,37.879751
万柏林区,"资料暂未齐全,请拨打110,告诉警察你所在区域的地址及标志地物",环网巷万柏林区凤凰双语小学,兴华,太原市万柏林区凤凰双语小学校园警务室,112.531045,37.880005
万柏林区,"资料暂未齐全,请拨打110,告诉警察你所在区域的地址及标志地物",兴华礼仪幼儿园南门旁,千峰,兴华派出所兴华学前教育集团校园警务室,112.51961,37.884682
万柏林区,"资料暂未齐全,请拨打110,告诉警察你所在区域的地址及标志地物",义井街北二条2化二建幼儿园,千峰,长风派出所化二建幼儿园警务室,112.510517,37.822001
万柏林区,"资料暂未齐全,请拨打110,告诉警察你所在区域的地址及标志地物",义井街北二条与长风西街交叉口南100米,义井,长风派出所六十二中校园警务室,112.510259,37.820487
万柏林区,"资料暂未齐全,请拨打110,告诉警察你所在区域的地址及标志地物",杏园二巷兴华街小学校,漪汾街,太原市万柏林区兴华街小学校校园警务室,112.521228,37.885315
万柏林区,"资料暂未齐全,请拨打110,告诉警察你所在区域的地址及标志地物",大众街煤气化大王小区,千峰,和平南路派出所众纺路社区赵咏梅警务室,112.516863,37.84881
万柏林区,"资料暂未齐全,请拨打110,告诉警察你所在区域的地址及标志地物",长风西街与西中环路出口交叉口西180米,NULL,义井派出所驻太原市妇幼保健院警务室,112.497014,37.822962
万柏林区,"资料暂未齐全,请拨打110,告诉警察你所在区域的地址及标志地物",千峰南路与气化街交叉口南100米,千峰,和平南路派出所财专校园警务室,112.518744,37.852381
万柏林区,"资料暂未齐全,请拨打110,告诉警察你所在区域的地址及标志地物",众纺路4号,千峰,和平南路派出所大众社区警务室,112.515273,37.849682
万柏林区,"资料暂未齐全,请拨打110,告诉警察你所在区域的地址及标志地物",金域阅山北门北70米,和平北路,太原市万柏林区公园路小学校校园警务室,112.514348,37.867064
万柏林区,"资料暂未齐全,请拨打110,告诉警察你所在区域的地址及标志地物",上庄街(赞城附近),东社,太原市万柏林区第三实验小学校园警务室,112.479664,37.88164
万柏林区,"资料暂未齐全,请拨打110,告诉警察你所在区域的地址及标志地物",万柏林区九院沙河快速路南沿岸,长风,太原市公安局万柏林分局经侦大队接待室,112.538073,37.826749
万柏林区,"资料暂未齐全,请拨打110,告诉警察你所在区域的地址及标志地物",山纺小学街与众纺路交叉口东100米,千峰,和平南路派出所众纺路小学校校园警务室,112.516537,37.84412
万柏林区,"资料暂未齐全,请拨打110,告诉警察你所在区域的地址及标志地物",西宫南二巷41号附近,西宫,万柏林派出所和平苑社区警务室,112.503862,37.88165
万柏林区,"资料暂未齐全,请拨打110,告诉警察你所在区域的地址及标志地物",西矿街与华清巷交叉口西200米,迎泽西大街,和平北路派出所北二条社区警务室,112.497364,37.861395
万柏林区,"资料暂未齐全,请拨打110,告诉警察你所在区域的地址及标志地物",水利水电勘测设计研究院西门旁,千峰,千峰派出所山西水利设计院警务室,112.526979,37.859193
万柏林区,"资料暂未齐全,请拨打110,告诉警察你所在区域的地址及标志地物",九院东路建北街副53号,西矿街,建矿派出所建北花园社区警务室,112.446379,37.856149
万柏林区,"资料暂未齐全,请拨打110,告诉警察你所在区域的地址及标志地物",滨河西路辅路,长风,太原市公安局万柏林分局长风责任区刑警队,112.538017,37.826833
万柏林区,"资料暂未齐全,请拨打110,告诉警察你所在区域的地址及标志地物",上庄北路,东社,东社派出所太原市社会(儿童)福利院警务室,112.465456,37.885581
万柏林区,"资料暂未齐全,请拨打110,告诉警察你所在区域的地址及标志地物",开城街与玉兰路交叉口东180米,NULL,西铭派出所万柏林区开城街学校校园警务室,112.437825,37.866156
万柏林区,"资料暂未齐全,请拨打110,告诉警察你所在区域的地址及标志地物",下元街办,千峰,和平南路派出所纺织苑西社区警务室,112.517203,37.844195
万柏林区,"资料暂未齐全,请拨打110,告诉警察你所在区域的地址及标志地物",漪汾街139号附近,漪汾,兴华小区派出所漪汾苑社区警务室,112.521709,37.876035
万柏林区,"资料暂未齐全,请拨打110,告诉警察你所在区域的地址及标志地物",纺织街(大唐四季花园东南侧),千峰,和平南路派出所兴华学前教育集团校园警务室,112.521728,37.845993
万柏林区,"资料暂未齐全,请拨打110,告诉警察你所在区域的地址及标志地物",气化街22号气化街小学,千峰,和平南路派出所气化街小学警务室,112.512272,37.852957
万柏林区,"资料暂未齐全,请拨打110,告诉警察你所在区域的地址及标志地物",北排洪北沿岸与上庄街交叉口东北120米,东社,太原市公安局万柏林分局兴华责任区刑警队,112.476163,37.882014
万柏林区,"资料暂未齐全,请拨打110,告诉警察你所在区域的地址及标志地物",大众街万柏林分局和平南路派出所,千峰,公安万柏林分局和平南路派出所值班室,112.511998,37.848756
万柏林区,"资料暂未齐全,请拨打110,告诉警察你所在区域的地址及标志地物",西铭路辅路与安宁街交叉口西南100米,NULL,建矿派出所万柏林区建筑中巷小学校园警务室,112.447744,37.857753
万柏林区,"资料暂未齐全,请拨打110,告诉警察你所在区域的地址及标志地物",上庄北路,东社,东社派出所太原孤残儿童特殊教育学校警务室,112.465559,37.885524
万柏林区,"资料暂未齐全,请拨打110,告诉警察你所在区域的地址及标志地物",永乐南街太原市外国语凤凰双语中学校,兴华街,兴华派出所太原市外国语学院警务室,112.522334,37.877421
万柏林区,"资料暂未齐全,请拨打110,告诉警察你所在区域的地址及标志地物",南上庄西街与千峰南路交叉口西120米,千峰,长风派出所南上庄西街小区警务室,112.514564,37.822919
万柏林区,"资料暂未齐全,请拨打110,告诉警察你所在区域的地址及标志地物",河涝湾街18号太原市第五实验中学校,NULL,太原市第五实验中学校建矿派出所校园警务室,112.444128,37.845059
万柏林区,"资料暂未齐全,请拨打110,告诉警察你所在区域的地址及标志地物",安宁街与重机倒渣路交叉口西北320米,NULL,万柏公安局和平北路派出所普国汽配城警务室,112.47517,37.867195
万柏林区,"资料暂未齐全,请拨打110,告诉警察你所在区域的地址及标志地物",环网巷与环网北巷交叉口东40米,兴华,太原市兴华小区派出所恒大康乐幼儿园校园警务室,112.530141,37.88047
万柏林区,"资料暂未齐全,请拨打110,告诉警察你所在区域的地址及标志地物",万柏林区实验中学东北门西100米,NULL,东社派出所太原市万柏林区实验中学校园警务室,112.479015,37.880777
万柏林区,"资料暂未齐全,请拨打110,告诉警察你所在区域的地址及标志地物",西机路(锦绣蓝湾),东社,东社派出所万柏林区兴西小学校南寨校园警务室,112.459252,37.878028
万柏林区,"资料暂未齐全,请拨打110,告诉警察你所在区域的地址及标志地物",和平南路204号附近,千峰,太原市公安局万柏林分局六建警务室,112.509686,37.831292
万柏林区,"资料暂未齐全,请拨打110,告诉警察你所在区域的地址及标志地物",太原市公安局西山分局,南寒羊汤馆,太原市公安局太原西山生态文化旅游示范区分局,112.455453,37.852071
万柏林区,"资料暂未齐全,请拨打110,告诉警察你所在区域的地址及标志地物",西苑街与西苑西巷交叉口东南100米,NULL,太原市公安局万柏林分局西山片区警务服务中心,112.441103,37.85405
万柏林区,"资料暂未齐全,请拨打110,告诉警察你所在区域的地址及标志地物",上庄街123号附近,东社,太原市社会福利精神康宁医院警务室,112.464628,37.887009
万柏林区,"资料暂未齐全,请拨打110,告诉警察你所在区域的地址及标志地物",万柏林路17号西中环人行天桥西侧,NULL,万柏林区兴华西街小学校校园警务室,112.489305,37.894083
万柏林区,"资料暂未齐全,请拨打110,告诉警察你所在区域的地址及标志地物",建筑北巷建筑北巷小学,西矿街,建矿派出所原市万柏林区建筑北巷小学校园警务室,112.446141,37.852523
万柏林区,"资料暂未齐全,请拨打110,告诉警察你所在区域的地址及标志地物",西苑东巷九院住宅小区,NULL,西铭派出所太原市万柏林区西苑小学校校园警务室,112.441548,37.855213
万柏林区,"资料暂未齐全,请拨打110,告诉警察你所在区域的地址及标志地物",流路10号,西矿街,太原市公安局万柏林分局人民来访接待室,112.490765,37.859043
万柏林区,"资料暂未齐全,请拨打110,告诉警察你所在区域的地址及标志地物",前进路31号附近,NULL,小井峪派出所万柏林区第三中学警务室,112.500671,37.853772
万柏林区,"资料暂未齐全,请拨打110,告诉警察你所在区域的地址及标志地物",虎峪河北沿岸与西矿南二巷交叉口东南80米,南寒羊汤馆,建矿派出所太原市六十五中校园警务室,112.459603,37.850657
万柏林区,"资料暂未齐全,请拨打110,告诉警察你所在区域的地址及标志地物",杜儿坪街道,NULL,太原市公安局西山分局虎峪派出所,112.3894,37.8274
万柏林区,"资料暂未齐全,请拨打110,告诉警察你所在区域的地址及标志地物",太重兴业阳光幼儿园南园东门旁,下元,和平北路派出所太重兴业阳光幼儿园警务室,112.506547,37.862412
万柏林区,"资料暂未齐全,请拨打110,告诉警察你所在区域的地址及标志地物",大众街与和平南路交叉口东60米,千峰,公安万柏林分局和平南路派出所户政接待室,112.51192,37.848755
万柏林区,"资料暂未齐全,请拨打110,告诉警察你所在区域的地址及标志地物",西中环路辅路与迎泽西大街交叉口北140米,迎泽西大街,中共太原市公安局万柏林分局纪律检查委员会,112.490761,37.858698
万柏林区,"资料暂未齐全,请拨打110,告诉警察你所在区域的地址及标志地物",和平南路与沙沟北街交叉口南40米,千峰,公安万柏林分局长风派出所地矿小区警务室,112.510236,37.834522
万柏林区,"资料暂未齐全,请拨打110,告诉警察你所在区域的地址及标志地物",众纺路与纺织南街交叉口东南50米,千峰,和平南路派出所纺织苑东社区山西三建警务室,112.515767,37.841749
万柏林区,"资料暂未齐全,请拨打110,告诉警察你所在区域的地址及标志地物",千峰西一巷16号,千峰,万柏林区政府宿舍,112.514929,37.860614
万柏林区,"资料暂未齐全,请拨打110,告诉警察你所在区域的地址及标志地物",纺织北街中国电子科技集团第二研究所住宅小区,千峰,中国电子科技集团公司第二研究所宿舍东区警务室,112.511676,37.84699
万柏林区,"资料暂未齐全,请拨打110,告诉警察你所在区域的地址及标志地物",太原四十九中西门旁,千峰,和平南路派出所太原市第四十九中学校校园警务室,112.515515,37.842752
万柏林区,0351-6121110,上庄街与普国路交叉口往东150米路北,东社,东社派出所,112.476002,37.882012
万柏林区,"资料暂未齐全,请拨打110,告诉警察你所在区域的地址及标志地物",五三小区北侧150米,白家庄,白家庄派出所户政接待室,112.43002,37.836729
万柏林区,"资料暂未齐全,请拨打110,告诉警察你所在区域的地址及标志地物",流路10号,迎泽西大街,太原市公安局万柏林分局信访接待室,112.490854,37.859254
万柏林区,"资料暂未齐全,请拨打110,告诉警察你所在区域的地址及标志地物",小井峪街道瓦流路10号,西矿街,太原市公安局万柏林分局户政接待室,112.490851,37.858945
万柏林区,0351-2736800,西矿街与公园路交叉口万柏林区政府政务大厅,千峰,太原市公安局万柏林出入境接待大厅,112.515277,37.859294
万柏林区,"资料暂未齐全,请拨打110,告诉警察你所在区域的地址及标志地物",博学东路太原理工大学(迎西校区),千峰,太原市公安局出入境服务站,112.520402,37.861484
万柏林区,"资料暂未齐全,请拨打110,告诉警察你所在区域的地址及标志地物",喜宝・时光儿童城东门北90米,下元,太原市公安局万柏林分局公元时代城警务工作服务站,112.510654,37.857051
万柏林区,"资料暂未齐全,请拨打110,告诉警察你所在区域的地址及标志地物",玉兰路与开城街交叉口南100米,NULL,太原市公安局万柏林分局涉案财物管理中心,112.435497,37.864717
万柏林区,0351-6526771,大众街12号,千峰,和平南路派出所办户办证接待室,112.511907,37.848772
万柏林区,"资料暂未齐全,请拨打110,告诉警察你所在区域的地址及标志地物",NULL,NULL,太原市公安局西山分局九院派出所,112.411251,37.814965
万柏林区,0351-6207110,化客头街道大虎沟街南,NULL,虎窝派出所,112.401266,37.870189
万柏林区,"资料暂未齐全,请拨打110,告诉警察你所在区域的地址及标志地物",九院小区北,NULL,万柏林二大队,112.442993,37.8585
万柏林区,"资料暂未齐全,请拨打110,告诉警察你所在区域的地址及标志地物",晋祠路太原市公安局南内环出入境接待大厅,千峰,山西省公安厅境外非政府组织管理办公室,112.530903,37.836519
万柏林区,"资料暂未齐全,请拨打110,告诉警察你所在区域的地址及标志地物",千峰南路大唐实验小学附近,千峰,和平南路派出所治安岗亭,112.521979,37.845538
万柏林区,"资料暂未齐全,请拨打110,告诉警察你所在区域的地址及标志地物",太原市公安局交通警察支队万柏林二大队东门南50米,NULL,太原市公安局公路巡逻民警支队万柏林二大队,112.443118,37.858416
尖草坪区,0351-3443904,恒山路22号,恒山路,光社派出所,112.557204,37.933646
尖草坪区,"资料暂未齐全,请拨打110,告诉警察你所在区域的地址及标志地物",汇丰街51号,兴华街,汇丰派出所,112.522161,37.897427
尖草坪区,"资料暂未齐全,请拨打110,告诉警察你所在区域的地址及标志地物",尖草坪北三巷9号,涧河,尖草坪派出所,112.568867,37.917032
尖草坪区,0351-6266263,兴华街66号,和平北路,万柏林派出所,112.511862,37.886743
尖草坪区,"资料暂未齐全,请拨打110,告诉警察你所在区域的地址及标志地物",尖草坪派出所东南门旁,涧河,太原市公安局尖草坪责任区刑警队,112.568847,37.916932
尖草坪区,"资料暂未齐全,请拨打110,告诉警察你所在区域的地址及标志地物",文兴路辅路与汇丰街交叉口东北20米,兴华,草坪刑警,112.521964,37.897303
尖草坪区,"资料暂未齐全,请拨打110,告诉警察你所在区域的地址及标志地物",恒源路15号附近,NULL,滨西花园警务室,112.523037,37.900943
尖草坪区,"资料暂未齐全,请拨打110,告诉警察你所在区域的地址及标志地物",三给街与文兴路交叉口西240米,和平北路,治安警务室,112.513864,37.906912
尖草坪区,"资料暂未齐全,请拨打110,告诉警察你所在区域的地址及标志地物",尖草坪派出所东南门旁,涧河,尖草坪派出所户政大厅,112.568802,37.917026
尖草坪区,"资料暂未齐全,请拨打110,告诉警察你所在区域的地址及标志地物",摄乐街与金汇路交叉口东240米,NULL,柴村派出所社区警务室,112.504473,37.92116
尖草坪区,"资料暂未齐全,请拨打110,告诉警察你所在区域的地址及标志地物",山西冶金技师学院草坪校区南门东南50米,NULL,警务室,112.588325,37.984763
尖草坪区,"资料暂未齐全,请拨打110,告诉警察你所在区域的地址及标志地物",迎新南二巷钢新第三幼儿园,迎新街,钢新三幼警务室,112.535025,37.952477
尖草坪区,"资料暂未齐全,请拨打110,告诉警察你所在区域的地址及标志地物",金汇路与金桥西街交叉口南220米,NULL,尖草坪公安,112.498754,37.935901
尖草坪区,0351-2132146,龙康南街恒大影城城御景湾店对面,NULL,古城派出所,112.527106,37.930374
尖草坪区,"资料暂未齐全,请拨打110,告诉警察你所在区域的地址及标志地物",温馨苑・北郡东侧410米,NULL,户政大厅,112.5186,37.986254
尖草坪区,"资料暂未齐全,请拨打110,告诉警察你所在区域的地址及标志地物",大同路与迎新南一巷交叉口东北120米,迎新街,怡和园警务室,112.525074,37.954405
尖草坪区,"资料暂未齐全,请拨打110,告诉警察你所在区域的地址及标志地物",欢咀村村民委员会,NULL,欢咀村警务室,112.61268,37.996506
尖草坪区,"资料暂未齐全,请拨打110,告诉警察你所在区域的地址及标志地物",金阳一巷与迎宾南路交叉口东北60米,NULL,柴村社区警务室,112.48982,37.938541
尖草坪区,0351-2457110;0351-2457369,新兰路南50米户政大厅附近,NULL,向阳派出所,112.518355,37.98595
尖草坪区,"资料暂未齐全,请拨打110,告诉警察你所在区域的地址及标志地物",新赵路与龙康南街交叉口西60米,NULL,古城派出所综合服务厅,112.526952,37.93026
尖草坪区,"资料暂未齐全,请拨打110,告诉警察你所在区域的地址及标志地物",东流街与和平北路交叉口东80米,和平北路,小东流平安建设警务站,112.510632,37.900022
尖草坪区,"资料暂未齐全,请拨打110,告诉警察你所在区域的地址及标志地物",尖草坪地铁站B口步行210米,涧河路,尖草坪派出所警务室,112.562474,37.913183
尖草坪区,"资料暂未齐全,请拨打110,告诉警察你所在区域的地址及标志地物",尖草坪街辅路(尖草坪地铁站A口步行210米),NULL,尖草坪派出所利民社区警务室,112.561763,37.916106
尖草坪区,"资料暂未齐全,请拨打110,告诉警察你所在区域的地址及标志地物",车站街与解放路交叉口东140米,NULL,尖草坪派出所恒山社区警务室,112.564641,37.917971
尖草坪区,"资料暂未齐全,请拨打110,告诉警察你所在区域的地址及标志地物",晋塔苑北门旁,光社,光社派出所建工街社区警务室,112.560148,37.928259
尖草坪区,"资料暂未齐全,请拨打110,告诉警察你所在区域的地址及标志地物",大同路西200米,大同路,滨河城小区警务室,112.531293,37.930909
尖草坪区,"资料暂未齐全,请拨打110,告诉警察你所在区域的地址及标志地物",十里铺东二巷与恒山路辅路交叉口东160米,NULL,尖草坪派出所大型社区警务室,112.560909,37.925317
尖草坪区,"资料暂未齐全,请拨打110,告诉警察你所在区域的地址及标志地物",文兴路160号太原维刚实验学校(北校区),NULL,太原维刚实验学校校园警务室,112.519589,37.901729
尖草坪区,"资料暂未齐全,请拨打110,告诉警察你所在区域的地址及标志地物",凤凰城南门旁,迎新街,凤凰城小区警务室,112.53925,37.949115
尖草坪区,"资料暂未齐全,请拨打110,告诉警察你所在区域的地址及标志地物",迎宾南路27号附近,NULL,柴村警务室,112.493947,37.940042
尖草坪区,"资料暂未齐全,请拨打110,告诉警察你所在区域的地址及标志地物",新城东街北一巷与新城北街东三巷交叉口西80米,新城,迎新街派出所新星社区警务室,112.54489,37.950966
尖草坪区,"资料暂未齐全,请拨打110,告诉警察你所在区域的地址及标志地物",迎新北一巷10号太原市第十一中学校,迎新街,太原市第十一中学校园警务室,112.534207,37.955983
尖草坪区,"资料暂未齐全,请拨打110,告诉警察你所在区域的地址及标志地物",汾西公路与杨家村北街交叉口西北460米,NULL,柴村派出所西张小学校警务室,112.476367,37.956107
尖草坪区,"资料暂未齐全,请拨打110,告诉警察你所在区域的地址及标志地物",千峰北路山西万峰医院,兴华,汇丰派出所山西万峰医院警务室,112.517319,37.890334
尖草坪区,0351-3251274,迎新南二巷与迎新路交叉口东北150米,迎新街,迎新街派出所,112.533252,37.951968
尖草坪区,"资料暂未齐全,请拨打110,告诉警察你所在区域的地址及标志地物",滨河东路与滨河东路入口交叉口东南460米,大同路,古城派出所辰憬天地社区警务室,112.532204,37.903427
尖草坪区,"资料暂未齐全,请拨打110,告诉警察你所在区域的地址及标志地物",迎新南巷怡和园小区,大同路,迎新街派出所怡和园小区警务室,112.525961,37.955284
尖草坪区,"资料暂未齐全,请拨打110,告诉警察你所在区域的地址及标志地物",迎新东二条与迎新南二巷交叉口西北80米,迎新街,太原市公安局南寨责任区刑警队,112.540778,37.952103
尖草坪区,"资料暂未齐全,请拨打110,告诉警察你所在区域的地址及标志地物",兴华北街96号附近,兴华街,汇丰派出所汇丰苑社区警务室,112.52427,37.89422
尖草坪区,"资料暂未齐全,请拨打110,告诉警察你所在区域的地址及标志地物",新胜路与汾西南路交叉口西40米,NULL,太原市尖草坪区芮城中心校警务室,112.494385,37.932678
尖草坪区,"资料暂未齐全,请拨打110,告诉警察你所在区域的地址及标志地物",太原市第六十六中学校东门旁,迎新街,太原市第六十六中学校校园警务室,112.540703,37.954534
尖草坪区,"资料暂未齐全,请拨打110,告诉警察你所在区域的地址及标志地物",江阳化工厂内,NULL,太原市公安局直属分局向阳派出所,112.515998,38.002182
尖草坪区,"资料暂未齐全,请拨打110,告诉警察你所在区域的地址及标志地物",下兰村(下兰村村委会附近),NULL,迎新街派出所下兰村警务室,112.516521,37.949867
尖草坪区,"资料暂未齐全,请拨打110,告诉警察你所在区域的地址及标志地物",汇丰街与恒源路交叉口东140米,兴华,汇丰派出所新兴社区警务室,112.524748,37.897216
尖草坪区,"资料暂未齐全,请拨打110,告诉警察你所在区域的地址及标志地物",大同路159号,大同路,太原市公安局森林公安分局,112.541225,37.909109
尖草坪区,0351-3052255,兴安苑东区,迎新街,太原市公安局尖草坪分局南寨派出所,112.537885,37.954755
尖草坪区,"资料暂未齐全,请拨打110,告诉警察你所在区域的地址及标志地物",江阳路与江阳街交叉口东40米,NULL,南寨派出所江阳社区警务室,112.517333,38.001112
尖草坪区,"资料暂未齐全,请拨打110,告诉警察你所在区域的地址及标志地物",中北大学南1门旁,上兰,上兰派出所太纸社区警务室,112.444052,38.009735
尖草坪区,"资料暂未齐全,请拨打110,告诉警察你所在区域的地址及标志地物",迎新东二条太原市尖草坪区第二中学校,迎新街,太原市尖坪区第二中学校校园警务室,112.541193,37.961473
尖草坪区,"资料暂未齐全,请拨打110,告诉警察你所在区域的地址及标志地物",迎新街43号附近,迎新街,南寨派出所朝阳社区警务室,112.53206,37.959305
尖草坪区,"资料暂未齐全,请拨打110,告诉警察你所在区域的地址及标志地物",柴村镇呼延村太原市明德学校,NULL,柴村派出所太原市明德学校校园警务室,112.456935,37.977974
尖草坪区,0351-6032110,迎宾南路5号,NULL,太原市公安局尖草坪分局巡逻警察大队,112.493606,37.93368
尖草坪区,"资料暂未齐全,请拨打110,告诉警察你所在区域的地址及标志地物",和平北路160号附近,兴华街,汇丰派出所华硕苑社区警务室,112.51026,37.888038
尖草坪区,"资料暂未齐全,请拨打110,告诉警察你所在区域的地址及标志地物",中央大道中北大学,上兰,太原市公安局直属分局中北大学警务室,112.443801,38.014817
尖草坪区,"资料暂未齐全,请拨打110,告诉警察你所在区域的地址及标志地物",江阳路太原市第六十七中学校,NULL,南寨派出所太原市第六十七中校园警务室,112.51837,37.998115
尖草坪区,"资料暂未齐全,请拨打110,告诉警察你所在区域的地址及标志地物",三给中心校北80米,和平北路,太原市公安局尖草坪分局汇丰责任区刑警队,112.50227,37.910556
尖草坪区,"资料暂未齐全,请拨打110,告诉警察你所在区域的地址及标志地物",解放北路辅路与北中环街入口交叉口西北240米,NULL,尖草坪派出所太原市华誉商贸有限公司警务室,112.560257,37.902586
尖草坪区,"资料暂未齐全,请拨打110,告诉警察你所在区域的地址及标志地物",和平北路与金桥北街交叉口南80米,NULL,尖草坪区柴村派出所柴村安置房项目警务室,112.502272,37.941395
尖草坪区,"资料暂未齐全,请拨打110,告诉警察你所在区域的地址及标志地物",NULL,NULL,柴村派出所尖草坪区机关幼儿园校园警务室,112.488062,37.941207
尖草坪区,"资料暂未齐全,请拨打110,告诉警察你所在区域的地址及标志地物",NULL,NULL,太原市公安局直属分局警务工作站,112.583132,37.967881
晋源区,"资料暂未齐全,请拨打110,告诉警察你所在区域的地址及标志地物",和平南路494号,义井,义井派出所,112.506884,37.815467
晋源区,0351-6592195,贞观街35号,NULL,太原市公安局晋源分局,112.475593,37.715425
晋源区,"资料暂未齐全,请拨打110,告诉警察你所在区域的地址及标志地物",晋祠景区-关帝庙南侧230米,NULL,晋祠派出所王郭村警务室,112.439131,37.678414
晋源区,"资料暂未齐全,请拨打110,告诉警察你所在区域的地址及标志地物",039省道565号附近,NULL,晋祠派出所远东警务室,112.460985,37.731214
晋源区,0351-6346110,晋祠镇晋祠村,NULL,晋祠派出所,112.447156,37.698441
晋源区,"资料暂未齐全,请拨打110,告诉警察你所在区域的地址及标志地物",集阜南街与南中环西街辅路交叉口西北60米,NULL,万国警务室,112.53069,37.794327
晋源区,"资料暂未齐全,请拨打110,告诉警察你所在区域的地址及标志地物",唐城公路晋源街道东关村委会,NULL,社区警务室,112.507275,37.738225
晋源区,"资料暂未齐全,请拨打110,告诉警察你所在区域的地址及标志地物",国兴西巷与长风西街交叉口南200米,义井,龙泉派出所,112.502363,37.819989
晋源区,"资料暂未齐全,请拨打110,告诉警察你所在区域的地址及标志地物",北堰村西中环,义井,北美风情警务室,112.499386,37.810979
晋源区,"资料暂未齐全,请拨打110,告诉警察你所在区域的地址及标志地物",新晋祠路(太原市晋源区金胜中学),NULL,金胜学校校园警务室,112.523405,37.784775
晋源区,"资料暂未齐全,请拨打110,告诉警察你所在区域的地址及标志地物",金胜镇董茹中心小学西南门旁,金胜,校园警务室,112.493509,37.784692
晋源区,"资料暂未齐全,请拨打110,告诉警察你所在区域的地址及标志地物",兴义路与西峪东街交叉口东北80米,义井,南一巷一社区警务室,112.509632,37.809697
晋源区,0351-6940582;0351-7211110,乾阳街,NULL,晋源派出所,112.490704,37.712953
晋源区,"资料暂未齐全,请拨打110,告诉警察你所在区域的地址及标志地物",健康西路丰沃悦湖城,NULL,金胜派出所户政大厅,112.526875,37.761727
晋源区,"资料暂未齐全,请拨打110,告诉警察你所在区域的地址及标志地物",西仁线,NULL,晋祠派出所,112.417844,37.681313
晋源区,"资料暂未齐全,请拨打110,告诉警察你所在区域的地址及标志地物",天龙山路与龙盛苑路交叉口东220米,NULL,晋祠派出所户政大厅,112.446954,37.698523
晋源区,"资料暂未齐全,请拨打110,告诉警察你所在区域的地址及标志地物",北大寺小学,NULL,校园警务室,112.456259,37.706558
晋源区,"资料暂未齐全,请拨打110,告诉警察你所在区域的地址及标志地物",景明南路与晋泽街交叉口西南20米,NULL,晋祠派出所,112.473465,37.707906
晋源区,"资料暂未齐全,请拨打110,告诉警察你所在区域的地址及标志地物",晋祠镇天龙山公路天龙山景区游客中心,NULL,天龙山景区-警务室,112.384738,37.73808
晋源区,"资料暂未齐全,请拨打110,告诉警察你所在区域的地址及标志地物",天主教太原教区洞儿沟墓园南侧220米,NULL,洞儿沟小学校园警务室,112.3795,37.655235
晋源区,"资料暂未齐全,请拨打110,告诉警察你所在区域的地址及标志地物",姚村镇姚村小学校西北侧,NULL,姚村派出所姚村小学校园警务室,112.395753,37.647395
晋源区,"资料暂未齐全,请拨打110,告诉警察你所在区域的地址及标志地物",姚村镇姚村中学,NULL,姚村派出所姚村中学校园警务室,112.389397,37.650937
晋源区,"资料暂未齐全,请拨打110,告诉警察你所在区域的地址及标志地物",景福北路与德化街交叉口东北60米,NULL,晋源派出所晋源区信访局警务室,112.479607,37.716098
晋源区,"资料暂未齐全,请拨打110,告诉警察你所在区域的地址及标志地物",晋祠路兰亭御湖城,NULL,义井派出所兰亭御湖城社区警务室,112.508433,37.802796
晋源区,"资料暂未齐全,请拨打110,告诉警察你所在区域的地址及标志地物",唐城街晋源花卉小镇(西南角),NULL,太原市公安局晋源分局景区警务室,112.515833,37.73629
晋源区,"资料暂未齐全,请拨打110,告诉警察你所在区域的地址及标志地物",姚村西街与康怡路交叉口北20米,NULL,姚村派出所24小时自助警务服务站,112.388591,37.653249
晋源区,"资料暂未齐全,请拨打110,告诉警察你所在区域的地址及标志地物",晋祠镇王郭村38号,NULL,太原市行知宏实验中学校-校园警务室,112.446177,37.680028
晋源区,"资料暂未齐全,请拨打110,告诉警察你所在区域的地址及标志地物",晋源东街凤凰苑小区对面,NULL,太原市公安局晋源分局晋源责任区刑警队,112.496874,37.727058
晋源区,"资料暂未齐全,请拨打110,告诉警察你所在区域的地址及标志地物",晋源街道黄冶小学,NULL,晋源派出所晋源街道黄冶中心小学校园警务室,112.45933,37.734548
晋源区,"资料暂未齐全,请拨打110,告诉警察你所在区域的地址及标志地物",唐城公路古城营小学,NULL,晋源派出所晋源街道古城营中学小学校园警务室,112.496539,37.739144
晋源区,"资料暂未齐全,请拨打110,告诉警察你所在区域的地址及标志地物",晋源区实验小学西门旁,NULL,晋祠派出所太原市晋源区实验小学校校园警务室,112.469819,37.71485
晋源区,"资料暂未齐全,请拨打110,告诉警察你所在区域的地址及标志地物",贞观街35号,NULL,太原市公安局晋源公安分局刑侦大队技术中队,112.475543,37.715417
晋源区,"资料暂未齐全,请拨打110,告诉警察你所在区域的地址及标志地物",康兴路太原市晋源区第六实验小学校,NULL,义井派出所太原市晋源区第六实验小学校园警务室,112.521203,37.795793
晋源区,"资料暂未齐全,请拨打110,告诉警察你所在区域的地址及标志地物",兴义路晋源区第三实验小学校,义井,义井派出所太原市晋源区第三实验小学校校园警务室,112.510102,37.81333
晋源区,"资料暂未齐全,请拨打110,告诉警察你所在区域的地址及标志地物",晋源街道景明北路13号,NULL,太原市公安局晋源分局森林派出所,112.475493,37.716113
晋源区,"资料暂未齐全,请拨打110,告诉警察你所在区域的地址及标志地物",万寿路与文景街交叉口南60米,NULL,太原市公安局晋源分局人民来访接待室,112.474867,37.715399
晋源区,"资料暂未齐全,请拨打110,告诉警察你所在区域的地址及标志地物",景明北路13号,NULL,太原市公安局晋源分局森林公安警察大队,112.475493,37.716114
晋源区,"资料暂未齐全,请拨打110,告诉警察你所在区域的地址及标志地物",晋祠镇马房沟交警训练基地,NULL,山西省公安厅交通管理局训练基地,112.430747,37.7098
晋源区,"资料暂未齐全,请拨打110,告诉警察你所在区域的地址及标志地物",义井街南二巷晋源公安分局义井派出所,义井,义井派出所户政服务大厅,112.506718,37.81556
晋源区,0351-6320141,金胜镇健康北街,NULL,金胜派出所,112.526738,37.761993
晋源区,"资料暂未齐全,请拨打110,告诉警察你所在区域的地址及标志地物",义井南二巷与义井南一条交叉口西北40米,义井,义井派出所一网通办自助服务站,112.506856,37.815759
晋源区,"资料暂未齐全,请拨打110,告诉警察你所在区域的地址及标志地物",晋源区实验中学正门旁,NULL,实验中学警务室,112.494153,37.704683
晋源区,"资料暂未齐全,请拨打110,告诉警察你所在区域的地址及标志地物",长风西街66号第7幢附近,NULL,义井派出所义井社区警务室,112.496068,37.818472
小店区,0351-7132110,清枫华景南门东侧,NULL,龙城派出所,112.579128,37.782104
小店区,0351-7269747,人民南路33号(通达街地铁站C口步行320米),NULL,小店派出所(人民南路),112.568192,37.727089
小店区,0351-7129168,太榆路,NULL,黄陵派出所,112.629261,37.774783
小店区,0351-7950110,西温庄乡小店街道通达街,NULL,西温庄派出所,112.614284,37.729249
小店区,0351-7046110,体育西路,坞城,亲贤派出所,112.566128,37.813164
小店区,0351-7993693,经济开发区电子街8号,NULL,富士康园区派出所,112.594671,37.751078
小店区,0351-7952850,刘家堡乡西柳林村加油站旁,NULL,刘家堡派出所,112.488145,37.659448
小店区,"资料暂未齐全,请拨打110,告诉警察你所在区域的地址及标志地物",晋阳街南二巷1号,北营,北营派出所,112.600373,37.787976
小店区,"资料暂未齐全,请拨打110,告诉警察你所在区域的地址及标志地物",亲贤北街94号太航职工文化馆附近,并州南路,银燕派出所,112.578066,37.821981
小店区,0351-7951846,北格镇北格村,NULL,北格派出所,112.539828,37.640798
小店区,"资料暂未齐全,请拨打110,告诉警察你所在区域的地址及标志地物",小店街道办李家庄村太原市小店区小店街道李家庄学校附近,NULL,李家庄社区警务室,112.560344,37.727121
小店区,"资料暂未齐全,请拨打110,告诉警察你所在区域的地址及标志地物",太原经济技术开发区,NULL,南黑窑警务室,112.594154,37.739581
小店区,0351-7331332,长治路世贸购物中心后面,长治路,平阳路派出所,112.559757,37.820076
小店区,"资料暂未齐全,请拨打110,告诉警察你所在区域的地址及标志地物",军民路太原市第三实验中学校,NULL,龙城派出所校园警务室,112.544667,37.788771
小店区,"资料暂未齐全,请拨打110,告诉警察你所在区域的地址及标志地物",数码路与数码东路交叉口东北40米,体育路,晶域蓝湾警务室,112.567352,37.795129
小店区,"资料暂未齐全,请拨打110,告诉警察你所在区域的地址及标志地物",农科北路31号太原南站F1层,NULL,公安值班(太原南站),112.610467,37.79197
小店区,"资料暂未齐全,请拨打110,告诉警察你所在区域的地址及标志地物",体育南路与龙城大街辅路交叉口北80米,NULL,残联小区警务室,112.569893,37.775126
小店区,"资料暂未齐全,请拨打110,告诉警察你所在区域的地址及标志地物",长风商圈南内环街78号,大营盘,营盘派出所校园警务室,112.570296,37.838741
小店区,"资料暂未齐全,请拨打110,告诉警察你所在区域的地址及标志地物",亲贤北街189梅园附近,省体育场,警务室,112.569501,37.826655
小店区,"资料暂未齐全,请拨打110,告诉警察你所在区域的地址及标志地物",长风大卖场北门东50米,学府街,亲贤派出所户政接待大厅,112.565906,37.81317
小店区,"资料暂未齐全,请拨打110,告诉警察你所在区域的地址及标志地物",农科南路黄陵派出所,NULL,黄陵派出所办证大厅,112.62938,37.774728
小店区,"资料暂未齐全,请拨打110,告诉警察你所在区域的地址及标志地物",金峰路与二许路交叉口西200米,NULL,许坦警务室,112.625077,37.806059
小店区,"资料暂未齐全,请拨打110,告诉警察你所在区域的地址及标志地物",大马中路大马北高层,学府街,大马北高层警务室,112.548576,37.803238
小店区,"资料暂未齐全,请拨打110,告诉警察你所在区域的地址及标志地物",真武路与电子西街交叉口南240米,真武路,恒大绿洲西区警务室,112.576392,37.749163
小店区,"资料暂未齐全,请拨打110,告诉警察你所在区域的地址及标志地物",公安局小店分局南门旁,昌盛西街,公安信访,112.582128,37.735451
小店区,"资料暂未齐全,请拨打110,告诉警察你所在区域的地址及标志地物",龙城大街和坞城南路交叉口东北方向,NULL,山西省公安厅,112.585945,37.775629
小店区,"资料暂未齐全,请拨打110,告诉警察你所在区域的地址及标志地物",开元社区党校宿舍区东门南200米,坞城,坞城派出所开元社区警务室,112.573183,37.802799
小店区,0351-7560003,龙盛街1号,NULL,唐明派出所,112.58613,37.735513
小店区,"资料暂未齐全,请拨打110,告诉警察你所在区域的地址及标志地物",小马花园南门旁,NULL,小马社区警务室,112.539898,37.778607
小店区,"资料暂未齐全,请拨打110,告诉警察你所在区域的地址及标志地物",科技东街与数码路交叉口西60米,坞城,中环派出所校园警务室,112.566519,37.796057
小店区,"资料暂未齐全,请拨打110,告诉警察你所在区域的地址及标志地物",正阳街北京闻励太原实验小学,NULL,校园警务室,112.602941,37.726168
小店区,"资料暂未齐全,请拨打110,告诉警察你所在区域的地址及标志地物",大吴南街黄陵街道大吴小学,NULL,校园警务室,112.595656,37.780284
小店区,"资料暂未齐全,请拨打110,告诉警察你所在区域的地址及标志地物",南中环街辅路与财大东巷交叉口东北120米,北营,大院小区警务室,112.595043,37.794177
小店区,"资料暂未齐全,请拨打110,告诉警察你所在区域的地址及标志地物",许坦东街与光明路交叉口西40米,NULL,北营派出所校园警务室,112.621331,37.801446
小店区,"资料暂未齐全,请拨打110,告诉警察你所在区域的地址及标志地物",紫云路与辛村街交叉口南320米,NULL,校园警务室,112.540524,37.646065
小店区,"资料暂未齐全,请拨打110,告诉警察你所在区域的地址及标志地物",武洛街与唐槐路交叉口东140米,NULL,移动警务工作站,112.598105,37.729158
小店区,"资料暂未齐全,请拨打110,告诉警察你所在区域的地址及标志地物",都乐街与下庄路交叉口西180米,真武路,小店派出所警务室,112.578019,37.72749
小店区,"资料暂未齐全,请拨打110,告诉警察你所在区域的地址及标志地物",太榆路199号武宿国际机场T2航站楼F2层,NULL,警察(武宿国际机场T2航站楼),112.636162,37.754079
小店区,"资料暂未齐全,请拨打110,告诉警察你所在区域的地址及标志地物",许坦西街12号附近,坞城,坞城派出所许坦西警务室,112.582284,37.801224
小店区,"资料暂未齐全,请拨打110,告诉警察你所在区域的地址及标志地物",和润种植园西南侧100米,NULL,鑫和电控设备警务室,112.619362,37.735508
小店区,"资料暂未齐全,请拨打110,告诉警察你所在区域的地址及标志地物",南环二巷3-8号附近,平阳,平阳路派出所卫校警务室,112.545452,37.837451
小店区,"资料暂未齐全,请拨打110,告诉警察你所在区域的地址及标志地物",小仁线与小刘线交叉口南160米,NULL,北格派出所户证大厅,112.539641,37.640873
小店区,"资料暂未齐全,请拨打110,告诉警察你所在区域的地址及标志地物",荣军医院南2门旁,北营,山西综合康复医院警务室,112.603077,37.779504
小店区,"资料暂未齐全,请拨打110,告诉警察你所在区域的地址及标志地物",康宁街857号附近,人民路,小店派出所小店村警务室,112.572217,37.737361
小店区,"资料暂未齐全,请拨打110,告诉警察你所在区域的地址及标志地物",平阳路与亲贤西街交叉口西280米,平阳,平阳路派出所校园警务室,112.549357,37.820507
小店区,"资料暂未齐全,请拨打110,告诉警察你所在区域的地址及标志地物",学府街与核工业路交叉口西南50米,坞城,亲贤派出所中辐院警务站,112.567103,37.807335
小店区,"资料暂未齐全,请拨打110,告诉警察你所在区域的地址及标志地物",育才小学西门旁(通达街地铁站C口步行270米),真武路,小店派出所育才小学警务室,112.568719,37.727281
小店区,"资料暂未齐全,请拨打110,告诉警察你所在区域的地址及标志地物",清枫华景南门西侧50米,NULL,龙城派出所西吴社区警务室,112.578808,37.78204
小店区,"资料暂未齐全,请拨打110,告诉警察你所在区域的地址及标志地物",晋阳街北一巷山毛小区,北营,北营派出所三毛社区警务室,112.600464,37.787842
小店区,"资料暂未齐全,请拨打110,告诉警察你所在区域的地址及标志地物",大吴社区居委会南门旁,NULL,龙城派出所大吴社区警务室,112.59546,37.780288
小店区,"资料暂未齐全,请拨打110,告诉警察你所在区域的地址及标志地物",小店立交桥北40米,NULL,小店派出所滨河站警务室,112.551427,37.745966
小店区,"资料暂未齐全,请拨打110,告诉警察你所在区域的地址及标志地物",荣军南街与庄儿西路交叉口北40米,黄陵,龙城派出所小吴社区警务室,112.601998,37.779763
小店区,"资料暂未齐全,请拨打110,告诉警察你所在区域的地址及标志地物",康宁街地铁站D口步行470米,NULL,小店派出所康宁社区警务室,112.566806,37.747184
小店区,"资料暂未齐全,请拨打110,告诉警察你所在区域的地址及标志地物",晨光西街与晨光西街北二条交叉口西北40米,昌盛西街,小店街道晨光幼儿园警务室,112.56505,37.739461
小店区,"资料暂未齐全,请拨打110,告诉警察你所在区域的地址及标志地物",可口可乐山西饮料有限公司东1门旁,长治路,中环派出所可口可乐警务室,112.561522,37.799055
小店区,"资料暂未齐全,请拨打110,告诉警察你所在区域的地址及标志地物",太榆路71-73号附近,太榆路,北营派出所许西社区警务室,112.593638,37.801081
小店区,"资料暂未齐全,请拨打110,告诉警察你所在区域的地址及标志地物",南十方街45号,双塔寺,长风东派出所白云寺警务室,112.595488,37.833956
小店区,"资料暂未齐全,请拨打110,告诉警察你所在区域的地址及标志地物",太榆路199号太原武宿国际机场1号航站楼2F层,NULL,警察(太原武宿国际机场1号航站楼),112.632445,37.754551
小店区,"资料暂未齐全,请拨打110,告诉警察你所在区域的地址及标志地物",太榆路199号武宿国际机场T2航站楼F2层,NULL,公安(太原武宿国际机场2号航站楼),112.634304,37.754501
小店区,"资料暂未齐全,请拨打110,告诉警察你所在区域的地址及标志地物",太行路太原市粮食技工学校,NULL,太原市粮食技工学校校园警务室,112.613634,37.797143
小店区,"资料暂未齐全,请拨打110,告诉警察你所在区域的地址及标志地物",食用菌协会贾家寨技术推广站西南门旁,NULL,小店派出所贾家寨社区警务室,112.554079,37.697657
小店区,"资料暂未齐全,请拨打110,告诉警察你所在区域的地址及标志地物",惠远西街与永康南路交叉口西20米,昌盛西街,小店派出所妇幼保健院警务室,112.563512,37.733245
小店区,"资料暂未齐全,请拨打110,告诉警察你所在区域的地址及标志地物",NULL,坞城,师范街社区师范街社区警务室,112.578513,37.805058
小店区,"资料暂未齐全,请拨打110,告诉警察你所在区域的地址及标志地物",九一学校南门旁,NULL,唐明派出所九一学校警务值班室,112.591637,37.737282
小店区,"资料暂未齐全,请拨打110,告诉警察你所在区域的地址及标志地物",小店街道第一初级中学校南门旁,真武路,小店派出所小店街道一中警务室,112.572495,37.728671
小店区,"资料暂未齐全,请拨打110,告诉警察你所在区域的地址及标志地物",人民南路26号,真武路,小店派出所人民南路社区警务室,112.568892,37.728679
小店区,"资料暂未齐全,请拨打110,告诉警察你所在区域的地址及标志地物",山西水利职业技术学院,NULL,山西水利职业技术学院警务室,112.614715,37.678902
小店区,"资料暂未齐全,请拨打110,告诉警察你所在区域的地址及标志地物",北园街4号,平阳,王村派出所山西省针灸医院警务室,112.557185,37.825882
小店区,"资料暂未齐全,请拨打110,告诉警察你所在区域的地址及标志地物",昌盛西街与新联巷交叉口西100米,昌盛西街,小店区第一中学校校园警务室,112.56188,37.736104
小店区,"资料暂未齐全,请拨打110,告诉警察你所在区域的地址及标志地物",并州南路西二巷与并州南路交叉口西140米,并州南路,营盘派出所体育路综合市场警务室,112.57708,37.826638
小店区,"资料暂未齐全,请拨打110,告诉警察你所在区域的地址及标志地物",瑞吉财商中心南门旁,坞城,北营派出所瑞吉财商中心警务室,112.596496,37.793987
小店区,"资料暂未齐全,请拨打110,告诉警察你所在区域的地址及标志地物",狄村北街小瀚林幼儿园,二营盘,公安小店分局营盘派出所警务室,112.570178,37.832879
小店区,"资料暂未齐全,请拨打110,告诉警察你所在区域的地址及标志地物",太原二中北门旁,黄陵,黄陵派出所太原二中校园警务室,112.607404,37.782828
小店区,"资料暂未齐全,请拨打110,告诉警察你所在区域的地址及标志地物",山西职业技术学院(南中环校区),坞城,山西职业技术学院南中环校区警务室,112.576547,37.793947
小店区,"资料暂未齐全,请拨打110,告诉警察你所在区域的地址及标志地物",西大街太原市小店区黄陵小学,黄陵,黄陵派出所黄陵小学校园警务室,112.606394,37.776834
小店区,"资料暂未齐全,请拨打110,告诉警察你所在区域的地址及标志地物",许坦东街与二许路交叉口西80米,NULL,太原市金桥双语学校北营派出所,112.625666,37.801076
小店区,"资料暂未齐全,请拨打110,告诉警察你所在区域的地址及标志地物",通达街永丰路小店刑警大队院内,真武路,太原市公安局小店分局经侦大队,112.574447,37.728849
小店区,"资料暂未齐全,请拨打110,告诉警察你所在区域的地址及标志地物",荣盛驾校南侧,NULL,教育园区派出所中泽社区警务室,112.608435,37.70928
小店区,"资料暂未齐全,请拨打110,告诉警察你所在区域的地址及标志地物",开新街与唐华路交叉口西180米,NULL,唐明警务派出所九一学校警务室,112.591663,37.737297
小店区,"资料暂未齐全,请拨打110,告诉警察你所在区域的地址及标志地物",开新街与唐华路交叉口东北100米,NULL,唐明派出所南黑窑联防队警务室,112.594438,37.737899
小店区,"资料暂未齐全,请拨打110,告诉警察你所在区域的地址及标志地物",许坦西街省公路局一公司北张小区,坞城,坞城派出所省公路局幼儿园警务室,112.579009,37.799785
小店区,"资料暂未齐全,请拨打110,告诉警察你所在区域的地址及标志地物",红寺北街山西财经大学华商学院,NULL,山西财经大学华商学院校园警务室,112.580429,37.769244
小店区,"资料暂未齐全,请拨打110,告诉警察你所在区域的地址及标志地物",长治路213号(学府街地铁站A口步行280米),学府街,山西神瑞物业管理公司宿舍警务室,112.561499,37.808724
小店区,"资料暂未齐全,请拨打110,告诉警察你所在区域的地址及标志地物",汾东北路西1巷6号小店街道二中附近,NULL,龙城派出所小店街道二中校园警务室,112.561577,37.752308
小店区,"资料暂未齐全,请拨打110,告诉警察你所在区域的地址及标志地物",黄陵东路与晋阳街辅路交叉口西北20米,北营,北营派出所晋阳街中学校园警务室,112.602078,37.789399
小店区,"资料暂未齐全,请拨打110,告诉警察你所在区域的地址及标志地物",小康路与东桥街交叉口西南320米,NULL,小店派出所小店街道警民小学警务室,112.569227,37.703554
小店区,"资料暂未齐全,请拨打110,告诉警察你所在区域的地址及标志地物",新寇庄南街与东岗路交叉口东40米,并州南路,营盘派出所山西省工业管理学校警务室,112.580009,37.832666
小店区,"资料暂未齐全,请拨打110,告诉警察你所在区域的地址及标志地物",恒大小学,真武路,太原市小店区恒大小学校园警务室,112.573167,37.747988
小店区,"资料暂未齐全,请拨打110,告诉警察你所在区域的地址及标志地物",上海永琪美容美发培训学校(山西分校)东侧,NULL,佰斯特水处理设备有限公司警务室,112.619456,37.735444
小店区,"资料暂未齐全,请拨打110,告诉警察你所在区域的地址及标志地物",许坦西街与坞城中路交叉口南80米,坞城,坞城派出所许坦西警务站第一警务室,112.580653,37.800131
小店区,"资料暂未齐全,请拨打110,告诉警察你所在区域的地址及标志地物",许坦西街48号,体育南路,太原市小店区坞城派出所校园警务室,112.572786,37.798151
小店区,"资料暂未齐全,请拨打110,告诉警察你所在区域的地址及标志地物",山西大学附属中学南门旁,坞城,坞城派出所山西大学附属中学警务室,112.581964,37.812271
小店区,"资料暂未齐全,请拨打110,告诉警察你所在区域的地址及标志地物",师范街武警医院,坞城,坞城派出所规范社区武警医院警务室,112.578665,37.80486
小店区,"资料暂未齐全,请拨打110,告诉警察你所在区域的地址及标志地物",学府街11号,坞城,坞城派出所太原五十一中校园警务室,112.588447,37.807753
小店区,"资料暂未齐全,请拨打110,告诉警察你所在区域的地址及标志地物",税务干部学校东门旁,坞城,坞城派出所山西税务学校校园警务室,112.58452,37.793135
小店区,"资料暂未齐全,请拨打110,告诉警察你所在区域的地址及标志地物",昌盛西街小店区一中,昌盛西街,太原市小店区第一中学校校园警务室,112.561895,37.736125
小店区,0351-7331332,南环四巷与亲贤北街交叉口北260米,平阳,太原市公安局小店分局平北西二社区警务室,112.549462,37.825565
小店区,"资料暂未齐全,请拨打110,告诉警察你所在区域的地址及标志地物",高级职业一中东侧50米,NULL,小店派出所小店职中学校校园警务室,112.547651,37.689918
小店区,"资料暂未齐全,请拨打110,告诉警察你所在区域的地址及标志地物",师范街与坞城中路交叉口西180米,坞城,坞城派出所武警医院师范街社区警务室,112.578528,37.805035
小店区,"资料暂未齐全,请拨打110,告诉警察你所在区域的地址及标志地物",小店街道孙家寨村孙家寨小学,NULL,小店派出所小店街道孙家寨小学警务室,112.530827,37.69116
小店区,"资料暂未齐全,请拨打110,告诉警察你所在区域的地址及标志地物",武宿大街西温庄乡二中,NULL,西温庄派出所西温庄乡二中校园警务室,112.646493,37.756922
小店区,0351-7129168,郑村街与北营南路交叉口西北280米,NULL,黄陵派出所小店区煤机学校校园警务室,112.642665,37.778907
小店区,"资料暂未齐全,请拨打110,告诉警察你所在区域的地址及标志地物",大唐花园北门旁(王村南街地铁站D口步行420米),王村南街,王村派出所小店区长治路学校校园警务室,112.559934,37.832706
小店区,"资料暂未齐全,请拨打110,告诉警察你所在区域的地址及标志地物",省府街九一小学,坞城,坞城派出所太原市九一小学校校园警务室,112.58116,37.81225
小店区,"资料暂未齐全,请拨打110,告诉警察你所在区域的地址及标志地物",人民日报社东门旁(龙城公园地铁站D2口步行280米),NULL,太原市公安局直属分局人民日报社警务室,112.563801,37.775283
小店区,"资料暂未齐全,请拨打110,告诉警察你所在区域的地址及标志地物",晨光西街7号附近,康宁街,小店派出所(小店街道晨光幼儿园警务室),112.564451,37.739481
小店区,"资料暂未齐全,请拨打110,告诉警察你所在区域的地址及标志地物",荣军南街新庄小区,黄陵,小店区公安局龙城派出所新庄社区警务室,112.606635,37.77941
小店区,"资料暂未齐全,请拨打110,告诉警察你所在区域的地址及标志地物",黄陵路39号太原维刚实验学校,黄陵,龙派派出所太原维刚实验学校校园警务室,112.606681,37.777857
小店区,"资料暂未齐全,请拨打110,告诉警察你所在区域的地址及标志地物",许坦东街与光明路交叉口西北20米,NULL,北营派出所小店区实验小学校校园警务室,112.621527,37.801457
小店区,"资料暂未齐全,请拨打110,告诉警察你所在区域的地址及标志地物",平阳南路472号附近,平阳,公安小店分局平阳路派出所六九0四社区警务室,112.553317,37.798074
小店区,0351-8398198,大昌南路辅路,NULL,教育园区派出所太原旅游职业学院警务室,112.602124,37.692545
小店区,"资料暂未齐全,请拨打110,告诉警察你所在区域的地址及标志地物",惠远西街与永康南路交叉口东南40米,昌盛西街,太原市公安局小店分局小店派出所校园警务室,112.56413,37.733099
小店区,"资料暂未齐全,请拨打110,告诉警察你所在区域的地址及标志地物",平阳路84号山西省公安厅,平阳,山西省公安厅直属第三公安局,112.552676,37.81859
小店区,"资料暂未齐全,请拨打110,告诉警察你所在区域的地址及标志地物",环堡街与宝塔路交叉口西北20米,NULL,黄陵派出所太原市内环双语学校校园警务室,112.660032,37.789118
小店区,"资料暂未齐全,请拨打110,告诉警察你所在区域的地址及标志地物",许坦东街与农科北路交叉口东60米,北营,北营派出所太原市综合高级中学校校园警务室,112.596919,37.801722
小店区,"资料暂未齐全,请拨打110,告诉警察你所在区域的地址及标志地物",亲贤路与航苑北街交叉口东南20米,体育路,坞城派出所太原市小店区太航学校校园警务室,112.57162,37.82235
小店区,"资料暂未齐全,请拨打110,告诉警察你所在区域的地址及标志地物",寇庄西路与八一街交叉口南80米,长风,平阳路派出所太原市第四十八中学校校园警务室,112.557888,37.813517
小店区,"资料暂未齐全,请拨打110,告诉警察你所在区域的地址及标志地物",知行路与励志中街交叉口西北60米,NULL,太原市公安局经济技术开发区分局教育园区派出所,112.604898,37.695654
小店区,"资料暂未齐全,请拨打110,告诉警察你所在区域的地址及标志地物",平阳南路6904宾馆附近,平阳,平阳路派出所大马流动人口服务管理站,112.551442,37.798376
小店区,"资料暂未齐全,请拨打110,告诉警察你所在区域的地址及标志地物",坤泽十里城对面,昌盛西街,太原市公安局小店公安分局刑侦大队技术中队,112.581899,37.736185
小店区,"资料暂未齐全,请拨打110,告诉警察你所在区域的地址及标志地物",育才小学西门旁(通达街地铁站C口步行260米),真武路,小店派出所太原市小店区育才小学校校园警务室,112.568739,37.727377
小店区,"资料暂未齐全,请拨打110,告诉警察你所在区域的地址及标志地物",第11大道山西蓝海国际汽配城,NULL,公安小店分局西温庄派出所武宿蓝海社区警务室,112.651177,37.76067
小店区,"资料暂未齐全,请拨打110,告诉警察你所在区域的地址及标志地物",南中环街辅路与锦尚巷交叉口东80米,体育南路,小店反扒队,112.572138,37.79406
小店区,"资料暂未齐全,请拨打110,告诉警察你所在区域的地址及标志地物",太原高新技术产业开发区南中环街,平阳,中环派出所源缘园小区警务站,112.553568,37.794044
小店区,"资料暂未齐全,请拨打110,告诉警察你所在区域的地址及标志地物",小店街办李家庄村卫生室西南侧,NULL,太原公安小店区分局小店派出所李家庄村社区警务室,112.560322,37.727124
小店区,"资料暂未齐全,请拨打110,告诉警察你所在区域的地址及标志地物",人民南路33号(通达街地铁站C口步行320米),NULL,太原市公安局小店出入境接待大厅,112.568165,37.727102
小店区,"资料暂未齐全,请拨打110,告诉警察你所在区域的地址及标志地物",庆云南街南黑窑综合市场,NULL,太原市公安局山西转型综改示范区分局南黑窑社区警务室,112.594148,37.739582
小店区,"资料暂未齐全,请拨打110,告诉警察你所在区域的地址及标志地物",知行路与励志中街交叉口西北60米,NULL,太原市公安局山西转型综合改革示范区分局教育园区派出所,112.604896,37.695651
小店区,"资料暂未齐全,请拨打110,告诉警察你所在区域的地址及标志地物",中环派出所南门旁,平阳,中环派出所办证大厅,112.555273,37.783756
小店区,"资料暂未齐全,请拨打110,告诉警察你所在区域的地址及标志地物",人民北路15号铁道建筑公安局第十七公安处第八公安分处,NULL,铁道建筑公安局第十七公安处第八公安分处第四派出所,112.566098,37.746323
小店区,"资料暂未齐全,请拨打110,告诉警察你所在区域的地址及标志地物",太原东服务区,NULL,太原东服务区警务室,112.644611,37.791471
小店区,"资料暂未齐全,请拨打110,告诉警察你所在区域的地址及标志地物",太原高新技术产业开发区小马村,平阳,龙城派出所小马社区治安大队,112.549389,37.780699
小店区,"资料暂未齐全,请拨打110,告诉警察你所在区域的地址及标志地物",胖胖艺术幼儿园南门旁(长风街地铁站A1口步行420米),长治路,平阳路派出所综合服务厅,112.560018,37.820054
小店区,"资料暂未齐全,请拨打110,告诉警察你所在区域的地址及标志地物",昌盛街与坞城南路交叉口西140米,昌盛西街,太原市公安局小店分局业务技术用房,112.582209,37.735514
小店区,0351-7176911,昌盛东街路北,昌盛西街,太原市公安局小店分局,112.581885,37.736295
小店区,0351-7129110,南中环街体育路口往东200米路北坞城派出所旁,体育南路,太原市公安局小店分局坞城责任区刑警队,112.572134,37.794226
小店区,"资料暂未齐全,请拨打110,告诉警察你所在区域的地址及标志地物",人民南路33号(通达街地铁站C口步行300米),NULL,小店派出所户证接待大厅,112.568141,37.72721
小店区,0351-7012557,太榆路199号,NULL,山西省公安厅民用机场公安局,112.633612,37.763872
小店区,"资料暂未齐全,请拨打110,告诉警察你所在区域的地址及标志地物",德秀路山西大学,太榆路,坞城派出所山大社区警务室,112.589742,37.804118
小店区,"资料暂未齐全,请拨打110,告诉警察你所在区域的地址及标志地物",坞城东街南巷37号,太榆路,山西省公安厅直属第一公安局,112.586504,37.809776
小店区,"资料暂未齐全,请拨打110,告诉警察你所在区域的地址及标志地物",昌盛西街23号,昌盛西街,太原市公安局小店分局巡警大队,112.564242,37.736125
小店区,"资料暂未齐全,请拨打110,告诉警察你所在区域的地址及标志地物",滨河东路,NULL,龙城派出所嘉节社区警务室,112.546383,37.760309
小店区,"资料暂未齐全,请拨打110,告诉警察你所在区域的地址及标志地物",太原经济技术开发区电子街八号,NULL,太原市公安局综改示范区分局(北区),112.594758,37.75117
小店区,"资料暂未齐全,请拨打110,告诉警察你所在区域的地址及标志地物",唐明路13号附近,NULL,太原市公安局经济技术开发区分局综合警务大队,112.58768,37.736618
小店区,"资料暂未齐全,请拨打110,告诉警察你所在区域的地址及标志地物",机场专用线附近,NULL,山西省公安厅民用机场公安局-交警队警务大厅,112.63335,37.763597
迎泽区,0351-2029767,桥东街1号,桥东,桥东派出所,112.584323,37.855794
迎泽区,0351-7226150,老军营东巷163号,南内环街,老军营派出所,112.548719,37.840895
迎泽区,0351-4044262,南校尉营8号,钟楼街,柳巷派出所,112.566547,37.865173
迎泽区,0351-4293426,南内环街39号,南内环街,营盘派出所,112.577116,37.839307
迎泽区,0351-2027989;0351-4033443,青年东街9号,并州北路,太原市公安局迎泽分局迎泽责任区刑警队,112.569327,37.85352
迎泽区,0351-4124160,水渠巷,NULL,庙前派出所,112.555058,37.867245
迎泽区,"资料暂未齐全,请拨打110,告诉警察你所在区域的地址及标志地物",桃园南路与康乐街交叉口北80米,桃园路,新南二社区警务室,112.545874,37.85242
迎泽区,"资料暂未齐全,请拨打110,告诉警察你所在区域的地址及标志地物",建设南路2号太原站F3层,双塔寺,太原车站派出所警务室,112.587563,37.860871
迎泽区,"资料暂未齐全,请拨打110,告诉警察你所在区域的地址及标志地物",关帝庙西1门东南50米,NULL,三晋小学校园警务室,112.55779,37.867234
迎泽区,"资料暂未齐全,请拨打110,告诉警察你所在区域的地址及标志地物",韶九巷(开化寺街地铁站B口步行250米),水西门街,梧桐居小区警务室,112.5581,37.863723
迎泽区,"资料暂未齐全,请拨打110,告诉警察你所在区域的地址及标志地物",金色起点苗苗幼儿园西门旁,大南门,苗苗幼儿园警务室,112.557861,37.862287
迎泽区,"资料暂未齐全,请拨打110,告诉警察你所在区域的地址及标志地物",杏花巷11号附近,府东街,上马街二社区警务室,112.578329,37.869261
迎泽区,"资料暂未齐全,请拨打110,告诉警察你所在区域的地址及标志地物",文源巷28号,桃园路,三十七中警务室,112.548598,37.854697
迎泽区,"资料暂未齐全,请拨打110,告诉警察你所在区域的地址及标志地物",山西省林业厅住宅区南门旁,新建南路,老军营派出所警务室,112.549585,37.842238
迎泽区,"资料暂未齐全,请拨打110,告诉警察你所在区域的地址及标志地物",并州西街8号附近,并州北路,并州路三社区警务室,112.569769,37.851013
迎泽区,0351-4250905,东安路7号,建设北路,文庙派出所,112.58401,37.86274
迎泽区,"资料暂未齐全,请拨打110,告诉警察你所在区域的地址及标志地物",东岗路142号,南内环街,红苹果幼儿园警务室,112.579307,37.843685
迎泽区,"资料暂未齐全,请拨打110,告诉警察你所在区域的地址及标志地物",葡萄园8号附近,双塔寺,桥东派出所双一警务室,112.577574,37.8424
迎泽区,"资料暂未齐全,请拨打110,告诉警察你所在区域的地址及标志地物",郝庄镇东中环路与郝家沟街交叉口西100米,郝庄,郝家沟小区警务室,112.604302,37.858671
迎泽区,"资料暂未齐全,请拨打110,告诉警察你所在区域的地址及标志地物",西里街北二条与桃园南路西里交叉口西北20米,双塔寺,老军营派出所桃一警务室,112.541848,37.84672
迎泽区,"资料暂未齐全,请拨打110,告诉警察你所在区域的地址及标志地物",桃园南路与桃园南路西里交叉口东20米,双塔寺,华府小区警务室,112.546125,37.84658
迎泽区,"资料暂未齐全,请拨打110,告诉警察你所在区域的地址及标志地物",东岗东巷与新生里交叉口西180米,桥东,东岗社区警务室,112.580484,37.854734
迎泽区,0351-4372445,王家峰北一巷,NULL,郝庄派出所,112.608912,37.850253
迎泽区,"资料暂未齐全,请拨打110,告诉警察你所在区域的地址及标志地物",龙堡街太原怡然家园,NULL,长风东派出所警务室,112.607431,37.811486
迎泽区,"资料暂未齐全,请拨打110,告诉警察你所在区域的地址及标志地物",马庄路马庄幼儿园(万山沟),NULL,马庄幼儿园警务室,112.62752,37.829528
迎泽区,"资料暂未齐全,请拨打110,告诉警察你所在区域的地址及标志地物",新建路65号,新建路,山西省气象局内部治安警务室,112.550879,37.869171
迎泽区,"资料暂未齐全,请拨打110,告诉警察你所在区域的地址及标志地物",开化寺街地铁站A口步行330米,水西门街,庙前派出所庙前街社区警务室,112.558106,37.866229
迎泽区,"资料暂未齐全,请拨打110,告诉警察你所在区域的地址及标志地物",桃园四巷2号,水西关街,水务投资集团内部治安警务室,112.550542,37.867063
迎泽区,"资料暂未齐全,请拨打110,告诉警察你所在区域的地址及标志地物",台骀山滑世界景区,NULL,南门警务室,112.714963,37.866642
迎泽区,"资料暂未齐全,请拨打110,告诉警察你所在区域的地址及标志地物",中校尉营与西校尉营交叉口东北40米,钟楼街,柳巷派出所校尉营社区警务室,112.565628,37.86682
迎泽区,"资料暂未齐全,请拨打110,告诉警察你所在区域的地址及标志地物",二市场东北30米,钟楼街,柳巷派出所察院后社区警务室,112.566094,37.869055
迎泽区,"资料暂未齐全,请拨打110,告诉警察你所在区域的地址及标志地物",上马街与新城北街交叉口北20米,建设北路,文庙派出所山佑巷社区警务室,112.58226,37.867818
迎泽区,"资料暂未齐全,请拨打110,告诉警察你所在区域的地址及标志地物",铜锣湾步行街宝地住宅小区,府东街,柳巷派出所宁化府社区警务室,112.570868,37.870011
迎泽区,"资料暂未齐全,请拨打110,告诉警察你所在区域的地址及标志地物",307国道台骀山景区台骀山游乐园,NULL,冰雕警务室,112.717946,37.876458
迎泽区,"资料暂未齐全,请拨打110,告诉警察你所在区域的地址及标志地物",双塔寺街69号附近,双塔东街,桥东派出所双塔二社区警务室,112.581508,37.846541
迎泽区,"资料暂未齐全,请拨打110,告诉警察你所在区域的地址及标志地物",五龙口南巷115号附近,五龙口,文庙派出所五龙二社区警务室,112.602318,37.862492
迎泽区,"资料暂未齐全,请拨打110,告诉警察你所在区域的地址及标志地物",民营区松庄路一号,朝阳,五龙湾派出所朝阳物流警务室,112.612393,37.858931
迎泽区,"资料暂未齐全,请拨打110,告诉警察你所在区域的地址及标志地物",宝佳万科紫台2期东2门北100米,长风,长风东派出所太堡社区警务室,112.594029,37.815439
迎泽区,"资料暂未齐全,请拨打110,告诉警察你所在区域的地址及标志地物",体育馆地铁站D口步行500米,双塔寺,迎泽派出所南内环三社区警务室,112.564329,37.843357
迎泽区,"资料暂未齐全,请拨打110,告诉警察你所在区域的地址及标志地物",山西气象科技大楼东门旁,新建路,庙前派出所桃园路一社区警务室,112.550886,37.869304
迎泽区,"资料暂未齐全,请拨打110,告诉警察你所在区域的地址及标志地物",迎泽大街与南宫东路交叉口西北100米,大南门,庙前派出所南海街一社区警务室,112.557072,37.860051
迎泽区,"资料暂未齐全,请拨打110,告诉警察你所在区域的地址及标志地物",南海西街9号附近,水西关街,庙前派出所水西关一社区警务室,112.551212,37.863005
迎泽区,"资料暂未齐全,请拨打110,告诉警察你所在区域的地址及标志地物",上官巷6号文庙派出所,NULL,文庙派出所上马街一社区警务室,112.574712,37.868035
迎泽区,"资料暂未齐全,请拨打110,告诉警察你所在区域的地址及标志地物",新城街小区东区北门旁,五龙口,山西公安警务自助服务站,112.582368,37.865222
迎泽区,"资料暂未齐全,请拨打110,告诉警察你所在区域的地址及标志地物",桃园南路西一巷7号滨河小学,桃园路,老军营派出所滨河小学校园警务室,112.543591,37.857154
迎泽区,"资料暂未齐全,请拨打110,告诉警察你所在区域的地址及标志地物",新西巷5号新西小学,水西关街,庙前派出所新西小学校园警务室,112.547941,37.861007
迎泽区,"资料暂未齐全,请拨打110,告诉警察你所在区域的地址及标志地物",桥东街31号,桥东,桥东派出所桥东街南社区警务室,112.578167,37.856803
迎泽区,"资料暂未齐全,请拨打110,告诉警察你所在区域的地址及标志地物",天成路紫东小区,NULL,长风东派出所治安警务室,112.639159,37.819094
迎泽区,"资料暂未齐全,请拨打110,告诉警察你所在区域的地址及标志地物",府西街地铁站C口步行150米,鼓楼街,太原市第四十五中学校校园警务室,112.561935,37.870564
迎泽区,"资料暂未齐全,请拨打110,告诉警察你所在区域的地址及标志地物",水西关街北一巷与桃园四巷交叉口西南100米,水西关街,庙前派出所桃园路二社区警务室,112.547567,37.866336
迎泽区,"资料暂未齐全,请拨打110,告诉警察你所在区域的地址及标志地物",南内环地铁站A2口步行420米,双塔寺,迎泽派出所南内环四社区警务室,112.566433,37.839124
迎泽区,"资料暂未齐全,请拨打110,告诉警察你所在区域的地址及标志地物",解放南路13号附近,新建南路,太原市公安局直属分局一院警务室,112.556523,37.853265
迎泽区,"资料暂未齐全,请拨打110,告诉警察你所在区域的地址及标志地物",师范巷与侯家巷交叉口北160米,NULL,太原市公安局直属第二分局,112.575644,37.863975
迎泽区,"资料暂未齐全,请拨打110,告诉警察你所在区域的地址及标志地物",小南关街9-15号,南内环街,迎泽派出所双塔西街三社区警务室,112.554194,37.843464
迎泽区,"资料暂未齐全,请拨打110,告诉警察你所在区域的地址及标志地物",桃园北路90号桃园小学,桃园路,庙前派出所桃园小学警务室,112.544737,37.868441
迎泽区,"资料暂未齐全,请拨打110,告诉警察你所在区域的地址及标志地物",青年路太原五中,双塔寺,太原市第五中学校园警务室,112.566028,37.849094
迎泽区,"资料暂未齐全,请拨打110,告诉警察你所在区域的地址及标志地物",双塔西街55号,双塔寺,太原市公安局迎泽分局校园警务室,112.556939,37.845981
迎泽区,"资料暂未齐全,请拨打110,告诉警察你所在区域的地址及标志地物",菜园街与寇庄西路交叉口南240米,南内环街,万家寨引黄工程公安处阳光警务室,112.56636,37.840467
迎泽区,0351-7226150,康乐街26号,双塔寺,太原市公安局迎泽分局校园警务室,112.547391,37.851592
迎泽区,"资料暂未齐全,请拨打110,告诉警察你所在区域的地址及标志地物",朝阳街北一巷金色阳光幼儿园,双塔寺,金色阳光幼儿园治安警务室,112.601312,37.857754
迎泽区,"资料暂未齐全,请拨打110,告诉警察你所在区域的地址及标志地物",新泽巷3号,桃园路,太原迎泽分局老军营派出所新南三社区警务室,112.549104,37.855968
迎泽区,"资料暂未齐全,请拨打110,告诉警察你所在区域的地址及标志地物",水西关南街17号附近,水西关街,太原市公安局迎泽分局水西关街四社区警务室,112.542582,37.862305
迎泽区,"资料暂未齐全,请拨打110,告诉警察你所在区域的地址及标志地物",太原市第三十九中学校西门旁,双塔寺,公安迎泽分局迎泽派出所三十九中校园警务室,112.561043,37.847764
迎泽区,"资料暂未齐全,请拨打110,告诉警察你所在区域的地址及标志地物",建设北路26号附近,建设北路,迎泽公安分局中铁六局电务太原分公司警务室,112.585936,37.863044
迎泽区,"资料暂未齐全,请拨打110,告诉警察你所在区域的地址及标志地物",后铁匠巷与小铁匠巷交叉口东100米,大南门,柳巷派出所成成中学校校园警务室,112.565087,37.861344
迎泽区,"资料暂未齐全,请拨打110,告诉警察你所在区域的地址及标志地物",育聪幼儿园东门旁,南内环街,长风东派出所双塔南巷社区警务室,112.591094,37.840021
迎泽区,"资料暂未齐全,请拨打110,告诉警察你所在区域的地址及标志地物",辰阳西条与郝庄正街交叉口东80米,郝庄,郝庄派出所新东城物流治安警务室,112.605394,37.853157
迎泽区,"资料暂未齐全,请拨打110,告诉警察你所在区域的地址及标志地物",五一路77号太原南海中学,铜锣湾,柳巷派出所太原南海中学校园警务室,112.572187,37.8697
迎泽区,"资料暂未齐全,请拨打110,告诉警察你所在区域的地址及标志地物",仁杰小学西门南120米,双塔寺,长风东派出所仁杰小学校园警务室,112.594787,37.825656
迎泽区,"资料暂未齐全,请拨打110,告诉警察你所在区域的地址及标志地物",万寿宫东侧,NULL,公安迎泽分局文庙派出所公安厅幼儿园校园警务室,112.577258,37.864149
迎泽区,"资料暂未齐全,请拨打110,告诉警察你所在区域的地址及标志地物",并州东街南三巷太原市实验中学校,并州北路,公安迎泽分局桥东派出所并州东街三社区警务室,112.582672,37.850485
迎泽区,"资料暂未齐全,请拨打110,告诉警察你所在区域的地址及标志地物",南校尉营8号,钟楼街,柳巷派出所户证大厅,112.566351,37.865302
迎泽区,"资料暂未齐全,请拨打110,告诉警察你所在区域的地址及标志地物",南海街23号院,新建路,太原市公安局迎泽分局庙前派出所新建路一社区警务室,112.554894,37.862449
迎泽区,"资料暂未齐全,请拨打110,告诉警察你所在区域的地址及标志地物",迎泽南街清馨雅苑8号楼,桥东,太原市公安局迎泽分局站前派出所,112.584332,37.858165
迎泽区,"资料暂未齐全,请拨打110,告诉警察你所在区域的地址及标志地物",新建路54号,新建路,太原市公安局迎泽分局庙前派出所省运管小区警务室,112.55196,37.866072
迎泽区,"资料暂未齐全,请拨打110,告诉警察你所在区域的地址及标志地物",桥东街82号附近,双塔寺,解放军联勤保障部队第九八五医院警务室,112.57806,37.856716
迎泽区,"资料暂未齐全,请拨打110,告诉警察你所在区域的地址及标志地物",解放南路迎泽公园(西南角),双塔寺,迎泽公安分局迎泽派出所迎泽公园警务室,112.557977,37.850895
迎泽区,"资料暂未齐全,请拨打110,告诉警察你所在区域的地址及标志地物",青年东街与青年东街北巷交叉口西60米,并州北路,太原市公安局迎泽分局文庙责任区刑警队,112.569288,37.853515
迎泽区,"资料暂未齐全,请拨打110,告诉警察你所在区域的地址及标志地物",羊市街与西庙巷交叉口东20米,鼓楼街,鼓楼派出所太原财政金融学校校园警务室,112.55761,37.868362
迎泽区,"资料暂未齐全,请拨打110,告诉警察你所在区域的地址及标志地物",新建路43号附近,水西关街,山西省水利厅公安处太原公安迎泽分局庙前派出所治安警务室,112.550975,37.866183
迎泽区,"资料暂未齐全,请拨打110,告诉警察你所在区域的地址及标志地物",新生里与建设南路交叉口西160米,双塔寺,桥东派出所太原市第四中学校校园警务室,112.583914,37.854112
迎泽区,"资料暂未齐全,请拨打110,告诉警察你所在区域的地址及标志地物",东安路7号,建设北路,太原市公安局迎泽分局桥东责任区刑警队,112.584006,37.862744
迎泽区,"资料暂未齐全,请拨打110,告诉警察你所在区域的地址及标志地物",水西关南街与水西关南街南二巷交叉口东80米,桃园路,庙前派出所太原市第三十中学校校园警务室,112.547991,37.862213
迎泽区,"资料暂未齐全,请拨打110,告诉警察你所在区域的地址及标志地物",明礼路与师陶路交叉口西南60米,双塔寺,太原市公安局迎泽派出所师苑幼儿园警务室,112.567377,37.841856
迎泽区,"资料暂未齐全,请拨打110,告诉警察你所在区域的地址及标志地物",民康街与王家峰街北一巷交叉口东40米,NULL,太原市公安局迎泽分局郝庄责任区刑警队,112.608958,37.850075
迎泽区,"资料暂未齐全,请拨打110,告诉警察你所在区域的地址及标志地物",桥东街北一巷与桥东街交叉口北60米,双塔寺,太原市公安局迎泽分局公共安全管理服务中心,112.58433,37.857699
迎泽区,"资料暂未齐全,请拨打110,告诉警察你所在区域的地址及标志地物",五龙口南巷与经园路交叉口西300米,郝庄,迎泽区第一实验小学附属幼儿园校园警务室,112.608768,37.861594
迎泽区,"资料暂未齐全,请拨打110,告诉警察你所在区域的地址及标志地物",海边街9号海边街小学,新建路,公安迎泽分局庙前派出所海边街小学校园警务室,112.553251,37.86659
迎泽区,"资料暂未齐全,请拨打110,告诉警察你所在区域的地址及标志地物",老军营西巷太原市文广艺术高中,南内环街,老军营三社区太原市文化艺术学校校园警务室,112.546054,37.839174
迎泽区,"资料暂未齐全,请拨打110,告诉警察你所在区域的地址及标志地物",邮电后街3号,并州北路,太原市公安局迎泽分局青年路小学校园警务室,112.56981,37.849712
迎泽区,"资料暂未齐全,请拨打110,告诉警察你所在区域的地址及标志地物",南宫西北角(大南门地铁站A口步行300米),新建南路,太原市公安局迎泽分局警务工作服务站(南宫站),112.555584,37.85903
迎泽区,"资料暂未齐全,请拨打110,告诉警察你所在区域的地址及标志地物",南十方街87号,NULL,太原市公安局迎泽公安分局刑侦大队技术中队,112.607978,37.835639
迎泽区,"资料暂未齐全,请拨打110,告诉警察你所在区域的地址及标志地物",山水城小学西北门旁,NULL,公安迎泽分局郝庄派出所山水城小学校校园警务室,112.639905,37.826719
迎泽区,"资料暂未齐全,请拨打110,告诉警察你所在区域的地址及标志地物",桥东街道长风东街3号,太榆路,长风东派出所,112.590421,37.818445
迎泽区,"资料暂未齐全,请拨打110,告诉警察你所在区域的地址及标志地物",双塔南路昱兴景苑,NULL,太原市公安局迎泽分局长风东派出所太堡二社区警务室,112.595605,37.820557
迎泽区,"资料暂未齐全,请拨打110,告诉警察你所在区域的地址及标志地物",桥东街15号,桥东,桥东派出所桥东街北社区警务室,112.582322,37.857618
迎泽区,0351-4250905,新城东街3号建设路小学校,五龙口,文庙派出所校园警务室,112.582885,37.865196
迎泽区,"资料暂未齐全,请拨打110,告诉警察你所在区域的地址及标志地物",迎泽大街88号,桥东,太原长途汽车站派出所,112.578025,37.859526
迎泽区,"资料暂未齐全,请拨打110,告诉警察你所在区域的地址及标志地物",青年东街9号,并州北路,迎泽派出所户政大厅,112.569262,37.853499
迎泽区,"资料暂未齐全,请拨打110,告诉警察你所在区域的地址及标志地物",侯家巷19号,NULL,太原市公安局巡警支队,112.575244,37.862787
迎泽区,0351-2021648,柳巷街道起凤街6号,NULL,太原市公安局交通警察支队迎泽一大队,112.570977,37.86144
迎泽区,"资料暂未齐全,请拨打110,告诉警察你所在区域的地址及标志地物",五龙口街万科紫院,双塔寺,文庙派出所双西小学紫院分校警务室,112.601931,37.865045
迎泽区,"资料暂未齐全,请拨打110,告诉警察你所在区域的地址及标志地物",后铁匠巷33号附近,大南门,柳巷派出所铁匠巷社区警务室,112.565315,37.861342
迎泽区,"资料暂未齐全,请拨打110,告诉警察你所在区域的地址及标志地物",滨河东路辅路与桃园四巷交叉口西40米,NULL,太原市公安局城管分局六大队,112.53904,37.866837
迎泽区,"资料暂未齐全,请拨打110,告诉警察你所在区域的地址及标志地物",龙城新苑北,NULL,郝庄派出所24小时自助服务,112.608906,37.850142
迎泽区,"资料暂未齐全,请拨打110,告诉警察你所在区域的地址及标志地物",侯家巷15号(太原师范学院候家巷西),NULL,太原市公安局人民来访接待室,112.575845,37.862787
迎泽区,"资料暂未齐全,请拨打110,告诉警察你所在区域的地址及标志地物",迎泽街道寇庄西路42号,南内环街,太原市迎泽区应急救援大队,112.557716,37.839649
杏花岭区,"资料暂未齐全,请拨打110,告诉警察你所在区域的地址及标志地物",涧河路27号,敦化坊,敦化坊派出所,112.58298,37.898607
杏花岭区,0351-3370770,南华门东二条6号,府东,杏花岭派出所,112.578322,37.872597
杏花岭区,"资料暂未齐全,请拨打110,告诉警察你所在区域的地址及标志地物",迎春街1号,建设北路,太原铁路公安局,112.586105,37.882021
杏花岭区,0351-3049632;0351-3238256,坝陵南街11号,新民中街,公安杏花岭分局,112.570461,37.881981
杏花岭区,"资料暂未齐全,请拨打110,告诉警察你所在区域的地址及标志地物",胜利街101号,NULL,胜利派出所,112.568267,37.893999
杏花岭区,0351-4424692,白龙庙街15号,五龙口,大东关派出所,112.589424,37.869823
杏花岭区,0351-3044869,北大街171号,新建路,巨轮派出所,112.553243,37.889229
杏花岭区,"资料暂未齐全,请拨打110,告诉警察你所在区域的地址及标志地物",迎春街21-1号,建设北路,林场派出所,112.596006,37.8823
杏花岭区,"资料暂未齐全,请拨打110,告诉警察你所在区域的地址及标志地物",鱼池街18号,三桥,观湖小区警务室,112.554655,37.877071
杏花岭区,0351-3040023,新民北街15号,坝陵桥,坝陵桥派出所,112.570453,37.884329
杏花岭区,"资料暂未齐全,请拨打110,告诉警察你所在区域的地址及标志地物",艺苑巷16号,三桥,三桥派出所校园警务室,112.555054,37.874002
杏花岭区,"资料暂未齐全,请拨打110,告诉警察你所在区域的地址及标志地物",建设北路256号附近,建设北路,小东光社区警务室,112.584539,37.885188
杏花岭区,"资料暂未齐全,请拨打110,告诉警察你所在区域的地址及标志地物",五龙口街泰然居,NULL,淖马平安建设警务室,112.625281,37.865388
杏花岭区,"资料暂未齐全,请拨打110,告诉警察你所在区域的地址及标志地物",缉虎营地铁站B口步行360米,三桥,龙潭派出所龙湖社区警务室,112.55823,37.879231
杏花岭区,"资料暂未齐全,请拨打110,告诉警察你所在区域的地址及标志地物",府东街与红沟北街交叉口东南20米,五龙口,乾通小区警务室,112.59541,37.872013
杏花岭区,"资料暂未齐全,请拨打110,告诉警察你所在区域的地址及标志地物",府东街62号,府东街,杏花岭派出所校园警务室,112.573329,37.872141
杏花岭区,"资料暂未齐全,请拨打110,告诉警察你所在区域的地址及标志地物",敦化南路50号,NULL,职工新村派出所办户办证大厅,112.592466,37.881852
杏花岭区,"资料暂未齐全,请拨打110,告诉警察你所在区域的地址及标志地物",建设北路172号建设北路小学,建设北路,建设北路小学校园警务室,112.584847,37.877391
杏花岭区,"资料暂未齐全,请拨打110,告诉警察你所在区域的地址及标志地物",太原市果品茶叶副食总公司果菜农产品综合市场东门旁,北大街,巨轮派出所综合服务大厅,112.553193,37.889321
杏花岭区,"资料暂未齐全,请拨打110,告诉警察你所在区域的地址及标志地物",北河湾路21号,建设北路,敦化坊派出所校园警务室,112.588297,37.892294
杏花岭区,"资料暂未齐全,请拨打110,告诉警察你所在区域的地址及标志地物",教场巷40号附近,建设北路,坝陵桥派出所教场巷社区警务室,112.580508,37.878972
杏花岭区,"资料暂未齐全,请拨打110,告诉警察你所在区域的地址及标志地物",新建路121号三桥派出所,旱西关,三桥派出所旱西关东社区警务室,112.550452,37.878901
杏花岭区,"资料暂未齐全,请拨打110,告诉警察你所在区域的地址及标志地物",晋安东街1号,涧河路,太原市公安局直属分局特勤大队,112.584735,37.899512
杏花岭区,"资料暂未齐全,请拨打110,告诉警察你所在区域的地址及标志地物",新开南巷25号,北大街,坝陵桥派出所新开巷社区警务室,112.580778,37.885143
杏花岭区,"资料暂未齐全,请拨打110,告诉警察你所在区域的地址及标志地物",五一路502号附近,北大街,巨轮派出所北大街东社区警务室,112.579618,37.889411
杏花岭区,"资料暂未齐全,请拨打110,告诉警察你所在区域的地址及标志地物",教场巷36号,新民中街,杏花岭派出所山大二院社区警务室,112.577705,37.878024
杏花岭区,"资料暂未齐全,请拨打110,告诉警察你所在区域的地址及标志地物",滨河东路辅路与胜利桥东北环路交叉口东北60米,巨轮,巨轮派出所胜利桥东社区警务室,112.541325,37.890075
杏花岭区,"资料暂未齐全,请拨打110,告诉警察你所在区域的地址及标志地物",胜利东街胜利东街3号附近,敦化坊,敦化纺派出所胜利东社区警务室,112.57757,37.895588
杏花岭区,"资料暂未齐全,请拨打110,告诉警察你所在区域的地址及标志地物",马道坡街紫霞苑,杨家峪,杨家峪派出所紫霞苑小区警务室,112.625638,37.877399
杏花岭区,"资料暂未齐全,请拨打110,告诉警察你所在区域的地址及标志地物",富力华庭C区南门西70米,巨轮,巨轮派出所富力华庭社区警务室,112.556997,37.895716
杏花岭区,"资料暂未齐全,请拨打110,告诉警察你所在区域的地址及标志地物",建设北路472号附近,敦化坊,敦化坊派出所机床东社区警务室,112.589853,37.895143
杏花岭区,"资料暂未齐全,请拨打110,告诉警察你所在区域的地址及标志地物",府东街杏花岭区第五中学校,大东关,大东关派出所杏花岭五中警务室,112.589829,37.871624
杏花岭区,"资料暂未齐全,请拨打110,告诉警察你所在区域的地址及标志地物",凯旋街7号附近,NULL,职工新村派出所新村社区警务室,112.601111,37.886167
杏花岭区,"资料暂未齐全,请拨打110,告诉警察你所在区域的地址及标志地物",梅花苑南2门旁,新建路,三桥派出所新建北路社区警务室,112.549316,37.888473
杏花岭区,"资料暂未齐全,请拨打110,告诉警察你所在区域的地址及标志地物",新民中街,府东,杏花岭派出所国师街社区警务室,112.569879,37.876554
杏花岭区,"资料暂未齐全,请拨打110,告诉警察你所在区域的地址及标志地物",大东关街宜佳上东城-东区,大东关,大东关派出所新源里北社区警务室,112.602188,37.87791
杏花岭区,"资料暂未齐全,请拨打110,告诉警察你所在区域的地址及标志地物",尖草坪街北三巷6号,涧河,太原市公安局城北分局刑事侦查大队,112.56926,37.916987
杏花岭区,"资料暂未齐全,请拨打110,告诉警察你所在区域的地址及标志地物",太原市第十九中学校南2门东60米,柳溪街,校园警务室(杏花岭公安分局三桥派出所),112.54289,37.882923
杏花岭区,"资料暂未齐全,请拨打110,告诉警察你所在区域的地址及标志地物",迎春街与迎春街北巷交叉口东南200米,大东关,职工新村派出所五龙口海鲜市场警务室,112.588939,37.880565
杏花岭区,"资料暂未齐全,请拨打110,告诉警察你所在区域的地址及标志地物",旱西关西社区东1门旁,三桥,旱西关东西社区警务室,112.547395,37.879314
杏花岭区,"资料暂未齐全,请拨打110,告诉警察你所在区域的地址及标志地物",北大街178号,巨轮,校园警务室,112.556944,37.888583
杏花岭区,"资料暂未齐全,请拨打110,告诉警察你所在区域的地址及标志地物",艺苑巷与小新街交叉口南100米,三桥,公安校园警务室,112.556891,37.875354
杏花岭区,0351-3049110,解放路西二道巷8号(大北门地铁站B口步行330米),北大街,龙潭派出所,112.558891,37.886449
杏花岭区,"资料暂未齐全,请拨打110,告诉警察你所在区域的地址及标志地物",坝陵北街与坝陵街交叉口南100米,坝陵桥,丽泽苑警务室,112.57049,37.883711
杏花岭区,0351-3532729,北大街198号,三桥,三桥派出所,112.546424,37.887779
杏花岭区,"资料暂未齐全,请拨打110,告诉警察你所在区域的地址及标志地物",劲松北路与桃园三巷交叉口东北60米,NULL,桃园二巷西社区警务室,112.541282,37.869779
杏花岭区,"资料暂未齐全,请拨打110,告诉警察你所在区域的地址及标志地物",坡子街与旱西门街交叉口北120米,三桥,龙湖派出所,112.558289,37.879189
杏花岭区,"资料暂未齐全,请拨打110,告诉警察你所在区域的地址及标志地物",解放路与东仓巷交叉口东南60米,鼓楼街,户政办理大厅,112.562211,37.879988
杏花岭区,"资料暂未齐全,请拨打110,告诉警察你所在区域的地址及标志地物",敦化南路116号附近,建设北路,职工新村派出所警务室,112.591547,37.88898
杏花岭区,"资料暂未齐全,请拨打110,告诉警察你所在区域的地址及标志地物",胜利街永兴堡小区,巨轮,永兴堡社区警务室,112.559208,37.892915
杏花岭区,"资料暂未齐全,请拨打110,告诉警察你所在区域的地址及标志地物",五一路景泽苑,小东门,景泽苑小区警务室,112.575128,37.884151
杏花岭区,0351-4413110,府东美奥花苑一层,大东关,杨家峪派出所,112.594879,37.874044
杏花岭区,"资料暂未齐全,请拨打110,告诉警察你所在区域的地址及标志地物",坝陵南街与坝陵街交叉口东40米,新民中街,太原市公安局杏花岭分局人民来访接待室,112.570607,37.882001
杏花岭区,"资料暂未齐全,请拨打110,告诉警察你所在区域的地址及标志地物",精营西边街与精营中横街交叉口西北140米,府东,聪明幼儿园校园警务室,112.570891,37.876428
杏花岭区,"资料暂未齐全,请拨打110,告诉警察你所在区域的地址及标志地物",西缉虎营与西后小河交叉口西北40米,鼓楼街,军瑞园警务室,112.559451,37.878182
杏花岭区,"资料暂未齐全,请拨打110,告诉警察你所在区域的地址及标志地物",东后小河与东后小河巷交叉口东60米,鼓楼街,府东公寓警务室,112.563546,37.877098
杏花岭区,"资料暂未齐全,请拨打110,告诉警察你所在区域的地址及标志地物",马道坡南40米,杨家峪,响水湾社区警务室,112.63021,37.875685
杏花岭区,"资料暂未齐全,请拨打110,告诉警察你所在区域的地址及标志地物",杏花岭六中东门旁,NULL,杏花岭公安分局涧河派出所校园警务室,112.575198,37.930859
杏花岭区,"资料暂未齐全,请拨打110,告诉警察你所在区域的地址及标志地物",安金丽园西门旁(大北门地铁站A口步行380米),北大街,育聪幼儿园校园警务室,112.559583,37.887778
杏花岭区,"资料暂未齐全,请拨打110,告诉警察你所在区域的地址及标志地物",五龙口街附近,五龙口,东华苑社区警务室,112.60929,37.863963
杏花岭区,"资料暂未齐全,请拨打110,告诉警察你所在区域的地址及标志地物",七府园路鸿升花园,NULL,涧河派出所东岗社区警务室,112.567617,37.929035
杏花岭区,"资料暂未齐全,请拨打110,告诉警察你所在区域的地址及标志地物",机床西社区北门东70米,敦化坊,敦化坊派出所办户办证大厅,112.58298,37.898607
杏花岭区,"资料暂未齐全,请拨打110,告诉警察你所在区域的地址及标志地物",享堂西街北一条与享堂路西二巷交叉口北160米,涧河,敦化坊派出所机车社区警务室,112.572994,37.904348
杏花岭区,"资料暂未齐全,请拨打110,告诉警察你所在区域的地址及标志地物",迎春小区西南门西50米,涧河,涧河派出所迎春苑社区警务室,112.567191,37.913413
杏花岭区,"资料暂未齐全,请拨打110,告诉警察你所在区域的地址及标志地物",北大街胜利桥小区,北大街,三桥派出所胜利桥社区警务室,112.54591,37.888281
杏花岭区,"资料暂未齐全,请拨打110,告诉警察你所在区域的地址及标志地物",涧河尖草坪街太原市春怡园(西小区)太原市春怡园西小区附近,涧河,涧河派出所中涧河社区警务室,112.57373,37.913243
杏花岭区,"资料暂未齐全,请拨打110,告诉警察你所在区域的地址及标志地物",钢中南路与钢中路交叉口西北60米,涧河,涧河派出所同煦苑社区警务室,112.572605,37.919853
杏花岭区,"资料暂未齐全,请拨打110,告诉警察你所在区域的地址及标志地物",七府园路与七府北巷交叉口东220米,NULL,涧河派出所七府坟社区警务室,112.573248,37.931178
杏花岭区,"资料暂未齐全,请拨打110,告诉警察你所在区域的地址及标志地物",太原市第十九中学校南1门旁,三桥,太原市第十九中学校校园警务室,112.542882,37.883029
杏花岭区,"资料暂未齐全,请拨打110,告诉警察你所在区域的地址及标志地物",兴和里北30米(大北门地铁站D口步行400米),巨轮,巨轮派出所北大街中社区警务室,112.566609,37.888063
杏花岭区,"资料暂未齐全,请拨打110,告诉警察你所在区域的地址及标志地物",府东街23号,府东,杏花岭派出所杏花岭社区警务室,112.579721,37.871864
杏花岭区,"资料暂未齐全,请拨打110,告诉警察你所在区域的地址及标志地物",精营东边街与精营中横街交叉口北60米,府东,杏花岭派出所东边街社区警务室,112.576164,37.876231
杏花岭区,"资料暂未齐全,请拨打110,告诉警察你所在区域的地址及标志地物",华苑西巷与华苑一巷交叉口西南220米,巨轮,巨轮派出所胜利街西社区警务室,112.554407,37.894011
杏花岭区,"资料暂未齐全,请拨打110,告诉警察你所在区域的地址及标志地物",胜利街与营西街交叉口西140米,NULL,巨轮派出所太原北方医院警务室,112.567267,37.893205
杏花岭区,"资料暂未齐全,请拨打110,告诉警察你所在区域的地址及标志地物",新建路小学羊市街分校东门旁,鼓楼街,新建路小学羊市街分校校园警务室,112.559524,37.870316
杏花岭区,"资料暂未齐全,请拨打110,告诉警察你所在区域的地址及标志地物",旱西南二条三桥街道桃园北路东社区,旱西关,三桥派出所桃园北路东社区警务室,112.547619,37.874862
杏花岭区,"资料暂未齐全,请拨打110,告诉警察你所在区域的地址及标志地物",东山马路与卧虎山路交叉口东100米,涧河,太原市公安局涧河责任区刑警队,112.580372,37.914291
杏花岭区,"资料暂未齐全,请拨打110,告诉警察你所在区域的地址及标志地物",大东关街与新原里交叉口西南120米,大东关,大东关派出所新源里南社区警务室,112.598022,37.875774
杏花岭区,"资料暂未齐全,请拨打110,告诉警察你所在区域的地址及标志地物",华苑东巷太原十二中(富力华庭校区),巨轮,巨轮派出所十二中富力校区警务室,112.558575,37.899507
杏花岭区,"资料暂未齐全,请拨打110,告诉警察你所在区域的地址及标志地物",尖草坪北三巷与柏杨树街交叉口南180米,涧河,太原市公安局城北分局东区派出所,112.569525,37.916916
杏花岭区,"资料暂未齐全,请拨打110,告诉警察你所在区域的地址及标志地物",东山马路,涧河,涧河派出所,112.580284,37.914142
杏花岭区,"资料暂未齐全,请拨打110,告诉警察你所在区域的地址及标志地物",永定路与东三道巷交叉口西60米,巨轮,太原市中心医院大北门东社区警务室,112.565894,37.884371
杏花岭区,"资料暂未齐全,请拨打110,告诉警察你所在区域的地址及标志地物",胜利桥东5号胜利桥东小学,巨轮,巨轮派出所胜利桥东小学校园警务室,112.544292,37.891835
杏花岭区,"资料暂未齐全,请拨打110,告诉警察你所在区域的地址及标志地物",红沟北街24号,大东关,太原市公安局职工新村责任区刑警队,112.595087,37.873403
杏花岭区,"资料暂未齐全,请拨打110,告诉警察你所在区域的地址及标志地物",解放路134号(缉虎营地铁站C口步行280米),鼓楼街,杏花岭公安分局鼓楼派出所校园警务室,112.561477,37.876347
杏花岭区,"资料暂未齐全,请拨打110,告诉警察你所在区域的地址及标志地物",金溪巷与旱西北巷交叉口北100米,北大街,杏花岭公安分局三桥派出所校园警务室,112.54876,37.884471
杏花岭区,"资料暂未齐全,请拨打110,告诉警察你所在区域的地址及标志地物",富安西路杏花岭区实验小学,敦化坊,敦化坊派出所杏花岭区实验小学警务室,112.59329,37.900747
杏花岭区,"资料暂未齐全,请拨打110,告诉警察你所在区域的地址及标志地物",华苑东巷乐恩幼儿园(太原富力华庭校区),巨轮,巨轮派出所富力华庭乐恩幼儿园警务室,112.557555,37.897455
杏花岭区,"资料暂未齐全,请拨打110,告诉警察你所在区域的地址及标志地物",东头道巷与永济路交叉口北40米,巨轮,巨轮派出所杏花岭区第七中学校警务室,112.564457,37.887143
杏花岭区,"资料暂未齐全,请拨打110,告诉警察你所在区域的地址及标志地物",前营坊街太原不夜城,NULL,杏花岭区龙潭派出所万达儿童天地警务室,112.558893,37.88282
杏花岭区,"资料暂未齐全,请拨打110,告诉警察你所在区域的地址及标志地物",西缉虎营后小河小学西缉虎营校区,鼓楼街,杏花岭公安局分局龙潭派出所校园警务室,112.560355,37.878255
杏花岭区,"资料暂未齐全,请拨打110,告诉警察你所在区域的地址及标志地物",建设北路287号附近,建设北路,杏花岭公安分局坝陵桥派出所校园警务室,112.581313,37.879939
杏花岭区,"资料暂未齐全,请拨打110,告诉警察你所在区域的地址及标志地物",营西街锦丰庄园,NULL,杏花岭公安分局巨轮派出所营西街警务室,112.568634,37.891097
杏花岭区,"资料暂未齐全,请拨打110,告诉警察你所在区域的地址及标志地物",柏杨树北二巷锦绣苑小学附近,涧河,校园警务室(杏花岭公安分局涧河派出所),112.57082,37.915186
杏花岭区,"资料暂未齐全,请拨打110,告诉警察你所在区域的地址及标志地物",茂园街与卧虎山路交叉口东北280米,NULL,杏花岭公安分局涧河派出所校园警务室,112.581219,37.938457
杏花岭区,"资料暂未齐全,请拨打110,告诉警察你所在区域的地址及标志地物",享堂西街北一条太原市第六十中学校,涧河,公安杏花岭分局敦化坊派出所校园警务室,112.572287,37.904945
杏花岭区,"资料暂未齐全,请拨打110,告诉警察你所在区域的地址及标志地物",小北门街与坝陵北街交叉口西北40米,北大街,坝陵桥派出所坝陵北街坝陵南街社区警务室,112.572292,37.884702
杏花岭区,"资料暂未齐全,请拨打110,告诉警察你所在区域的地址及标志地物",兵工北路与北关一巷交叉口北180米,NULL,巨轮派出所上北关社区中车国际广场警务室,112.5649,37.896854
杏花岭区,"资料暂未齐全,请拨打110,告诉警察你所在区域的地址及标志地物",马道坡与马道坡街交叉口东140米,杨家峪,杏花岭公安分局杨家峪派出所校园警务室,112.612285,37.88037
杏花岭区,"资料暂未齐全,请拨打110,告诉警察你所在区域的地址及标志地物",剪子湾村凯旋街10号太原杏岭实验学校,杨家峪,杨家峪派出所太原杏岭实验学校校园警务室,112.609758,37.886036
杏花岭区,"资料暂未齐全,请拨打110,告诉警察你所在区域的地址及标志地物",五一路辅路与小北门街交叉口南100米,北大街,坝陵桥派出所太原市杏花中学校校园警务室,112.573271,37.887283
杏花岭区,"资料暂未齐全,请拨打110,告诉警察你所在区域的地址及标志地物",NULL,NULL,太原市公安局杏花岭分局石油管道警务室,112.626008,37.92013
杏花岭区,"资料暂未齐全,请拨打110,告诉警察你所在区域的地址及标志地物",敦化化工路与新村路交叉口东80米,NULL,敦化坊派出所太原市杏花岭区如意小区警务室,112.601184,37.893396
杏花岭区,"资料暂未齐全,请拨打110,告诉警察你所在区域的地址及标志地物",解放路西二道巷5号,新民中街,太原市公安局杏花岭公安分局刑侦大队技术中队,112.570491,37.881992
杏花岭区,"资料暂未齐全,请拨打110,告诉警察你所在区域的地址及标志地物",上关后街西侧,NULL,公安杏花岭分局巨轮刑警中队上北关社区警务室,112.563696,37.892541
杏花岭区,0351-3934025,小返乡后沟村大街8号,NULL,小返派出所,112.591212,37.955293
杏花岭区,"资料暂未齐全,请拨打110,告诉警察你所在区域的地址及标志地物",杏花岭区第八中学校,涧河路,太原二十四中校园警务室,112.588461,37.892378
杏花岭区,"资料暂未齐全,请拨打110,告诉警察你所在区域的地址及标志地物",解放路130号鼓楼派出所,鼓楼街,阳光办证大厅,112.562077,37.880074
杏花岭区,0351-5656110,东三道巷5号,巨轮,杏花岭公安分局中心医院派出所,112.56552,37.884826
杏花岭区,"资料暂未齐全,请拨打110,告诉警察你所在区域的地址及标志地物",河里头村,NULL,太原市公安局警犬大队,112.630936,37.892009
杏花岭区,"资料暂未齐全,请拨打110,告诉警察你所在区域的地址及标志地物",建设北路210号,建设北路,太原铁路公安局太原公安处,112.584384,37.883562
杏花岭区,"资料暂未齐全,请拨打110,告诉警察你所在区域的地址及标志地物",坊山府东巷6号(缉虎营地铁站D口步行480米),鼓楼街,公安,112.56211,37.880074
杏花岭区,"资料暂未齐全,请拨打110,告诉警察你所在区域的地址及标志地物",迎春街迎春小区a区底层,NULL,太原市公安局杏花岭分局职工新村派出所,112.592276,37.881851
杏花岭区,"资料暂未齐全,请拨打110,告诉警察你所在区域的地址及标志地物",小北门街与坝陵北街交叉口西北20米,坝陵桥,坝陵桥街道坝陵北街社区,112.572241,37.884627
杏花岭区,"资料暂未齐全,请拨打110,告诉警察你所在区域的地址及标志地物",金刚堰路2号国土大厦F1层,旱西关,太原市公安局城管分局国土护卫大队,112.544692,37.878589
